{"type":"FeatureCollection","name":"fuera-cdmx","features":[{"type":"Feature","properties":{"label":"Próximamente"},"geometry":{"type":"MultiPolygon","coordinates":[[[[-99.6,18.9],[-99.6,19.75],[-98.7,19.75],[-98.7,18.9],[-99.6,18.9]],[[-99.1364815,19.089378],[-99.135379,19.0892961],[-99.1353721,19.0892772],[-99.1352126,19.0888405],[-99.1254331,19.0620647],[-99.1051286,19.0577901],[-99.1044539,19.057648],[-99.0620858,19.0487187],[-99.0598002,19.0482367],[-99.0566504,19.053462],[-99.0566502,19.0534623],[-99.0487287,19.0666015],[-99.0432089,19.0757555],[-99.0301949,19.0845565],[-99.0289937,19.0853688],[-98.9835945,19.0787633],[-98.9823614,19.0776084],[-98.9789954,19.0744559],[-98.9736966,19.0795532],[-98.9713723,19.0812184],[-98.9682836,19.0831409],[-98.9657215,19.0858612],[-98.9632658,19.0920628],[-98.9612398,19.0955832],[-98.9590635,19.104278],[-98.9589567,19.1090427],[-98.9586765,19.1100946],[-98.9586064,19.1104139],[-98.9584097,19.1113094],[-98.9586905,19.1125679],[-98.958692,19.1127053],[-98.958702,19.1136385],[-98.9585627,19.1145081],[-98.9585003,19.1148979],[-98.9580704,19.117581],[-98.9580029,19.1179154],[-98.957656,19.119631],[-98.9575075,19.1223832],[-98.9577974,19.1232036],[-98.958529,19.1252738],[-98.9587295,19.1258412],[-98.9595422,19.1283141],[-98.9604325,19.1310228],[-98.9605098,19.1312581],[-98.960854,19.1323052],[-98.9610919,19.1330291],[-98.9614784,19.1338234],[-98.9616255,19.1341259],[-98.9617154,19.1343105],[-98.9618172,19.1345197],[-98.9619455,19.1347834],[-98.9622727,19.1354558],[-98.962377,19.1356702],[-98.9624771,19.1358341],[-98.9626262,19.1360781],[-98.9628977,19.1365226],[-98.9631754,19.1369771],[-98.9634875,19.1374881],[-98.9637603,19.1379345],[-98.9638887,19.1382175],[-98.9646055,19.139797],[-98.9646453,19.1398454],[-98.9650891,19.140386],[-98.9651127,19.1404148],[-98.9654937,19.1413949],[-98.9656632,19.141831],[-98.9659561,19.1425845],[-98.9664559,19.1438705],[-98.963037,19.1456426],[-98.9626042,19.1458669],[-98.9598955,19.1471088],[-98.9594819,19.1472984],[-98.9546263,19.1495243],[-98.9583185,19.1538471],[-98.9584844,19.1540413],[-98.9594683,19.1551932],[-98.9598605,19.1556523],[-98.9600175,19.1558361],[-98.9605706,19.1564836],[-98.9610844,19.1570851],[-98.9620193,19.1581795],[-98.9626975,19.1589734],[-98.9631227,19.1594712],[-98.9637382,19.1601917],[-98.964616,19.1612193],[-98.9652503,19.1619617],[-98.9673664,19.1644387],[-98.9656122,19.1649305],[-98.9523857,19.1686376],[-98.9549157,19.1740634],[-98.9561747,19.1767631],[-98.9565217,19.1766352],[-98.9598491,19.1791679],[-98.9664103,19.1870317],[-98.9676939,19.1897431],[-98.9669787,19.1979216],[-98.9670258,19.1999099],[-98.9676097,19.2026897],[-98.9676803,19.2030259],[-98.9677019,19.2031289],[-98.9696786,19.2042529],[-98.9693344,19.2045501],[-98.968572,19.2052082],[-98.9679792,19.20572],[-98.9675094,19.2061255],[-98.9674046,19.2061724],[-98.9672287,19.2062511],[-98.9671685,19.2066176],[-98.9671813,19.2070423],[-98.967424,19.2073272],[-98.9670518,19.2076286],[-98.967006,19.2078994],[-98.9670024,19.2079207],[-98.9668635,19.2087427],[-98.9668265,19.2089613],[-98.9668378,19.2090065],[-98.9676573,19.2097961],[-98.9683765,19.2104888],[-98.9685279,19.2105711],[-98.9685194,19.2105716],[-98.9684404,19.2105764],[-98.9681031,19.2105968],[-98.9680668,19.210599],[-98.9678293,19.2107058],[-98.9675537,19.2110909],[-98.9672781,19.2114759],[-98.9672587,19.211503],[-98.9671568,19.2116454],[-98.9667979,19.2118464],[-98.9646539,19.2130474],[-98.9643116,19.2132392],[-98.9635353,19.2130443],[-98.9635346,19.2130453],[-98.9634814,19.2131147],[-98.9626941,19.2141426],[-98.96259,19.214133],[-98.962583,19.2141324],[-98.9625421,19.2141286],[-98.9611294,19.2139985],[-98.960022,19.2138964],[-98.9597461,19.213871],[-98.9597449,19.2138709],[-98.9599593,19.2142784],[-98.9600302,19.2144132],[-98.9600299,19.2144133],[-98.9596811,19.2145113],[-98.9594872,19.2145659],[-98.9592913,19.2146209],[-98.9592267,19.2146391],[-98.9592014,19.2146462],[-98.9591326,19.2146656],[-98.9591051,19.2146733],[-98.9586811,19.2147925],[-98.9584495,19.2148577],[-98.9584092,19.214869],[-98.9574613,19.2151355],[-98.9569089,19.2150585],[-98.9567992,19.2150433],[-98.956532,19.215006],[-98.9557089,19.2148913],[-98.9553496,19.2148412],[-98.9553077,19.2148354],[-98.9552797,19.2148314],[-98.9539483,19.2146459],[-98.9538416,19.2149531],[-98.9538365,19.2149676],[-98.9537198,19.2153035],[-98.953677,19.2154266],[-98.9536718,19.2154416],[-98.9536588,19.2154388],[-98.9536325,19.2154329],[-98.9532831,19.2153558],[-98.9528947,19.2152699],[-98.9532752,19.215496],[-98.9523924,19.2162464],[-98.9521546,19.216599],[-98.9510855,19.2181837],[-98.9509094,19.2181307],[-98.9425532,19.2156149],[-98.9418588,19.2179676],[-98.9403028,19.2232397],[-98.9429495,19.2240767],[-98.9441593,19.2244292],[-98.94476,19.2246203],[-98.9452434,19.2249123],[-98.9457704,19.2249543],[-98.9459273,19.2249668],[-98.9466437,19.2251961],[-98.9470072,19.2253125],[-98.947112,19.225346],[-98.9471531,19.2253592],[-98.947622,19.2255093],[-98.9476357,19.2255137],[-98.9476447,19.2255166],[-98.9481159,19.2256673],[-98.9485976,19.2258215],[-98.9494262,19.2260867],[-98.9499544,19.2262558],[-98.9499592,19.2262573],[-98.9499625,19.2262584],[-98.9499705,19.2262609],[-98.9499714,19.2262612],[-98.9499787,19.2262636],[-98.9499812,19.2262644],[-98.9499841,19.2262653],[-98.9499903,19.2262673],[-98.9499915,19.2262676],[-98.9500119,19.2262742],[-98.9500214,19.2262772],[-98.9500551,19.226288],[-98.9500802,19.2262961],[-98.950128,19.2263114],[-98.9502039,19.2263356],[-98.9503286,19.2263755],[-98.9503295,19.2263759],[-98.9510114,19.2265941],[-98.9513281,19.2266954],[-98.9514406,19.2267314],[-98.9522382,19.2269867],[-98.9522602,19.2269937],[-98.9526852,19.2271298],[-98.952872,19.2271896],[-98.9536496,19.2274384],[-98.9549765,19.2278631],[-98.9554092,19.2280015],[-98.9556898,19.2280913],[-98.955874,19.2281503],[-98.9561131,19.2282268],[-98.9563758,19.2283109],[-98.9586475,19.2290378],[-98.9604168,19.229604],[-98.962135,19.2301538],[-98.9624828,19.2302651],[-98.9640442,19.2307647],[-98.9652421,19.2311479],[-98.9661341,19.2314333],[-98.9662113,19.231458],[-98.9678756,19.2319905],[-98.9679183,19.2320042],[-98.9679193,19.2320045],[-98.9679196,19.2320046],[-98.9679203,19.2320048],[-98.9683667,19.2321476],[-98.9685865,19.232218],[-98.9679678,19.2364363],[-98.9659869,19.249941],[-98.9765306,19.2531254],[-98.9754132,19.257535],[-98.9749176,19.2594905],[-98.9733629,19.2676992],[-98.9717455,19.2766294],[-98.9714309,19.2783667],[-98.9702779,19.2857981],[-98.9702006,19.2863056],[-98.9697626,19.2891797],[-98.9696518,19.2899071],[-98.9696071,19.2902003],[-98.9695962,19.2902718],[-98.9695771,19.290397],[-98.9694957,19.2909314],[-98.9694513,19.2912232],[-98.9694131,19.2914736],[-98.9693294,19.2920227],[-98.9692807,19.2923423],[-98.9692453,19.2925751],[-98.9691945,19.2929084],[-98.9691825,19.2929871],[-98.9691588,19.2931427],[-98.9690944,19.2935652],[-98.9690703,19.2937231],[-98.9690427,19.2939048],[-98.969036,19.2939486],[-98.9690054,19.2941496],[-98.9689925,19.2942341],[-98.968926,19.2946707],[-98.9689163,19.2947339],[-98.9689161,19.2947352],[-98.9689159,19.2947364],[-98.9689155,19.2947389],[-98.968911,19.2947687],[-98.968836,19.2952612],[-98.9687899,19.2955633],[-98.9687518,19.2958137],[-98.9687302,19.2959554],[-98.9686651,19.2963826],[-98.9685838,19.2969162],[-98.9685097,19.2974025],[-98.9684957,19.2974942],[-98.9684166,19.2980132],[-98.9684093,19.2980613],[-98.9683428,19.2984978],[-98.9683284,19.2985919],[-98.968314,19.2986864],[-98.9683013,19.2987699],[-98.9683007,19.2987736],[-98.9682845,19.2988801],[-98.9682772,19.2989282],[-98.9682752,19.298941],[-98.9682729,19.298956],[-98.968271,19.2989687],[-98.9682664,19.2989992],[-98.9682661,19.2990009],[-98.9682597,19.2990428],[-98.9682571,19.2990598],[-98.9682545,19.2990768],[-98.9682542,19.2990792],[-98.9682529,19.2990873],[-98.9682492,19.299112],[-98.9682465,19.2991293],[-98.968244,19.2991461],[-98.9682432,19.2991512],[-98.9682429,19.2991529],[-98.9682428,19.299154],[-98.9682427,19.2991547],[-98.9682424,19.2991561],[-98.9682423,19.2991568],[-98.9682423,19.299157],[-98.9682422,19.2991578],[-98.9682414,19.2991631],[-98.9682391,19.2991782],[-98.9682363,19.2991969],[-98.9682355,19.2992026],[-98.9682252,19.2992713],[-98.9682127,19.2993552],[-98.9682115,19.2993627],[-98.9681818,19.2995619],[-98.9681732,19.2996196],[-98.9679607,19.3010411],[-98.9678844,19.3015512],[-98.9677767,19.302272],[-98.9676095,19.3033901],[-98.9675889,19.3035277],[-98.9675774,19.3036052],[-98.9675751,19.3036202],[-98.9675584,19.3037319],[-98.9675565,19.303745],[-98.9675552,19.3037532],[-98.9674586,19.3043992],[-98.9673055,19.3054236],[-98.9672683,19.3056725],[-98.9672427,19.3058439],[-98.9672327,19.3059104],[-98.9672324,19.3059129],[-98.9672297,19.3059306],[-98.9672255,19.3059589],[-98.9672253,19.3059605],[-98.9672246,19.3059647],[-98.9672241,19.3059684],[-98.967224,19.3059691],[-98.9672239,19.3059693],[-98.9672234,19.3059693],[-98.9672233,19.3059693],[-98.9672224,19.3059693],[-98.9672221,19.3059693],[-98.9672211,19.3059693],[-98.9672194,19.3059693],[-98.9672168,19.3059693],[-98.9672127,19.3059693],[-98.9672078,19.3059692],[-98.9671903,19.3059691],[-98.9671836,19.3059691],[-98.9671736,19.305969],[-98.9671369,19.3059688],[-98.9670543,19.3059682],[-98.9669247,19.3059673],[-98.9669085,19.3059672],[-98.9668752,19.305967],[-98.966821,19.3059666],[-98.9667805,19.3059664],[-98.9667498,19.3059662],[-98.9667497,19.3059662],[-98.9664377,19.3059637],[-98.9662764,19.3059625],[-98.9659863,19.3060843],[-98.9653868,19.3063359],[-98.9650901,19.3066006],[-98.9648877,19.3067812],[-98.9647761,19.3068808],[-98.9645258,19.30757],[-98.9644106,19.3078869],[-98.9643933,19.3079347],[-98.9643928,19.3079379],[-98.9643925,19.30794],[-98.9643918,19.3079443],[-98.9643915,19.3079459],[-98.9643901,19.3079544],[-98.9643882,19.3079664],[-98.964388,19.3079675],[-98.9643866,19.3079765],[-98.9643865,19.3079768],[-98.9643853,19.3079843],[-98.9643849,19.3079868],[-98.964382,19.3080048],[-98.9643777,19.3080317],[-98.9643733,19.3080593],[-98.9643702,19.3080786],[-98.96437,19.3080797],[-98.9643649,19.3081113],[-98.9643613,19.3081336],[-98.9643566,19.308163],[-98.9643548,19.3081741],[-98.9643447,19.3082368],[-98.9643446,19.3082373],[-98.964295,19.3085456],[-98.9642767,19.30866],[-98.9642438,19.3088642],[-98.9642301,19.3089494],[-98.96423,19.3089502],[-98.9642299,19.3089504],[-98.9642298,19.308951],[-98.9640549,19.3100388],[-98.9640543,19.3100424],[-98.9640541,19.3100434],[-98.964054,19.3100442],[-98.9640535,19.3100477],[-98.9639728,19.3105492],[-98.9639632,19.3106174],[-98.9639482,19.3107238],[-98.9639353,19.3108152],[-98.9639323,19.3108363],[-98.9639217,19.3109122],[-98.9639208,19.3109182],[-98.9639123,19.3109788],[-98.9639075,19.311013],[-98.9638963,19.3110923],[-98.9638959,19.311095],[-98.9638956,19.3110969],[-98.9638956,19.3110972],[-98.9638956,19.3110973],[-98.9638956,19.3110974],[-98.9638955,19.3110978],[-98.9638954,19.3110983],[-98.9637478,19.3121462],[-98.9637475,19.3121485],[-98.9637474,19.3121492],[-98.9637474,19.3121496],[-98.9637472,19.3121507],[-98.9637048,19.3124519],[-98.9637046,19.3124529],[-98.9635565,19.3135048],[-98.9634871,19.3139969],[-98.9634485,19.3142714],[-98.9634428,19.3143113],[-98.9634155,19.3145057],[-98.9633413,19.3150322],[-98.9629913,19.3166121],[-98.9629911,19.3166134],[-98.962991,19.3166138],[-98.9629908,19.3166147],[-98.9629906,19.3166156],[-98.9629658,19.3167274],[-98.9625621,19.31725],[-98.9618761,19.318138],[-98.9613991,19.3187555],[-98.9611311,19.3191025],[-98.9608604,19.3194528],[-98.9593142,19.3214542],[-98.9592714,19.3215097],[-98.9591555,19.3216597],[-98.9590015,19.3218591],[-98.9579026,19.3232276],[-98.9582366,19.323509],[-98.9583587,19.3236118],[-98.9590077,19.3241586],[-98.9603559,19.3252943],[-98.9604484,19.3253722],[-98.96045,19.3253735],[-98.9608252,19.3256897],[-98.9608808,19.3257365],[-98.9611198,19.3259379],[-98.9611844,19.3259923],[-98.9611977,19.3260035],[-98.9613457,19.3261282],[-98.961544,19.3262952],[-98.9625314,19.327127],[-98.9629946,19.3275172],[-98.9637762,19.3281756],[-98.9639967,19.3283613],[-98.9652869,19.3294327],[-98.9653341,19.3294719],[-98.9653732,19.3295043],[-98.9654481,19.3295666],[-98.9656934,19.3297702],[-98.9660633,19.3300774],[-98.9665193,19.3304561],[-98.9667784,19.3306712],[-98.9669169,19.3307861],[-98.9672028,19.3310297],[-98.9672754,19.3310915],[-98.9676739,19.331431],[-98.9676888,19.3314437],[-98.9680292,19.3317337],[-98.9680437,19.331746],[-98.9681085,19.3318013],[-98.9682902,19.331956],[-98.9683786,19.3320313],[-98.9697642,19.3332116],[-98.9699015,19.3333285],[-98.9702228,19.3336023],[-98.9705556,19.3338857],[-98.9712011,19.3344386],[-98.9716335,19.334809],[-98.9718657,19.3349945],[-98.9725575,19.3355471],[-98.9727567,19.3357062],[-98.9727882,19.3357313],[-98.9728689,19.3357994],[-98.9733182,19.336178],[-98.9738562,19.3366314],[-98.9738723,19.336645],[-98.9738725,19.3366451],[-98.9739417,19.3367034],[-98.9740212,19.3367704],[-98.9740409,19.3367871],[-98.9741182,19.3368521],[-98.9741415,19.3368718],[-98.9742083,19.3369281],[-98.9742834,19.3369914],[-98.9742939,19.3370002],[-98.9742982,19.3370039],[-98.9743133,19.3370166],[-98.9743212,19.3370232],[-98.9743215,19.3370235],[-98.9743227,19.3370245],[-98.9743243,19.3370259],[-98.9743245,19.3370261],[-98.9743246,19.3370261],[-98.9743251,19.3370266],[-98.974637,19.3373786],[-98.9749597,19.3377429],[-98.9752155,19.3380316],[-98.9754797,19.3383298],[-98.9758229,19.3388616],[-98.9758246,19.3388642],[-98.9761125,19.3393103],[-98.9764563,19.339843],[-98.9771621,19.3410334],[-98.9772775,19.3412282],[-98.9775273,19.3416497],[-98.9778084,19.342124],[-98.977822,19.3421401],[-98.9780634,19.3424257],[-98.9780768,19.3424415],[-98.9780771,19.342442],[-98.9780775,19.3424424],[-98.9785425,19.3429925],[-98.9787933,19.3432893],[-98.9789957,19.3434857],[-98.9790222,19.3435113],[-98.9791941,19.3436781],[-98.9795009,19.3439758],[-98.979631,19.3441019],[-98.9798699,19.3443336],[-98.9805849,19.3450272],[-98.9806602,19.3451003],[-98.9812732,19.3456949],[-98.9814992,19.3459142],[-98.98223,19.3466101],[-98.9823879,19.3467605],[-98.9825603,19.3469247],[-98.9838616,19.3481639],[-98.984485,19.3487576],[-98.9847044,19.3489697],[-98.9848173,19.3490788],[-98.9852102,19.3494586],[-98.9854573,19.3496975],[-98.9858683,19.3500948],[-98.9860387,19.3502595],[-98.9871747,19.3513576],[-98.9875836,19.3517529],[-98.9876135,19.3517818],[-98.9880933,19.3522455],[-98.988777,19.3528977],[-98.9891757,19.3532781],[-98.989625,19.3537067],[-98.9901065,19.3541659],[-98.9905936,19.3546307],[-98.9907309,19.3547616],[-98.9908861,19.3549097],[-98.9909923,19.355011],[-98.9913619,19.3553636],[-98.9914674,19.3554642],[-98.9916062,19.3555806],[-98.9924724,19.356307],[-98.9925032,19.3563328],[-98.9937519,19.3573799],[-98.994272,19.3578518],[-98.9945567,19.3581413],[-98.9945473,19.3585664],[-98.9944478,19.3588461],[-98.9941753,19.3590481],[-98.9940623,19.3592614],[-98.9935937,19.3601458],[-98.9935156,19.3602932],[-98.9934676,19.3603837],[-98.9933852,19.3606909],[-98.9931453,19.3615853],[-98.9931101,19.3617167],[-98.99302,19.3620523],[-98.9929735,19.3622257],[-98.9929273,19.3623983],[-98.9929082,19.3624692],[-98.9928678,19.3626201],[-98.9928587,19.3626541],[-98.9927768,19.3629887],[-98.9927732,19.3630033],[-98.9927392,19.3631425],[-98.9926775,19.3633947],[-98.9926439,19.3635318],[-98.9926254,19.3636074],[-98.9925958,19.3637287],[-98.9925763,19.3638083],[-98.9924973,19.3641311],[-98.9924667,19.3642564],[-98.9924183,19.364454],[-98.9923391,19.3647778],[-98.9922867,19.3649922],[-98.9922514,19.3651365],[-98.9921846,19.3654096],[-98.9920547,19.3659404],[-98.992037,19.3660128],[-98.9919865,19.3662193],[-98.991958,19.3663359],[-98.9919477,19.3663779],[-98.9919178,19.3665001],[-98.9918836,19.3666398],[-98.9918701,19.366695],[-98.991807,19.366865],[-98.9917554,19.3670038],[-98.9918,19.3674611],[-98.9918939,19.367554],[-98.9919392,19.3675987],[-98.992194,19.3677488],[-98.9922735,19.3677956],[-98.9923179,19.3678218],[-98.9926075,19.3679924],[-98.9926076,19.3679924],[-98.9926125,19.3679953],[-98.9926149,19.3679967],[-98.9926175,19.3679983],[-98.9926176,19.3679983],[-98.9929454,19.3681914],[-98.9930486,19.3682522],[-98.9932467,19.3683689],[-98.9934407,19.3684831],[-98.9936118,19.3685839],[-98.9938725,19.3687375],[-98.9939536,19.3687852],[-98.9940733,19.3688558],[-98.9941678,19.3689114],[-98.9942767,19.3689756],[-98.9942801,19.3689776],[-98.9942806,19.3689778],[-98.994281,19.3689781],[-98.9942814,19.3689783],[-98.9942835,19.3689796],[-98.9946,19.369166],[-98.9947168,19.3692348],[-98.9948828,19.3693326],[-98.9951325,19.3694796],[-98.9953305,19.3695962],[-98.9953791,19.3696249],[-98.9956026,19.3697565],[-98.9956038,19.3697572],[-98.9956042,19.3697574],[-98.9956059,19.3697584],[-98.9958249,19.3698875],[-98.9960491,19.3700195],[-98.9961611,19.3700854],[-98.9963774,19.3702128],[-98.9964705,19.3702677],[-98.9968035,19.3704638],[-98.996804,19.3704641],[-98.9968045,19.3704644],[-98.9968066,19.3704656],[-98.9968086,19.3704668],[-98.9968092,19.3704672],[-98.9968098,19.3704675],[-98.9971689,19.370679],[-98.9972282,19.3707139],[-98.9974935,19.3708702],[-98.9975472,19.3709018],[-98.9976259,19.3709482],[-98.997626,19.3709483],[-98.9976262,19.3709483],[-98.9977769,19.3710371],[-98.9978838,19.3711001],[-98.9980524,19.3711993],[-98.9982119,19.3712933],[-98.9983461,19.3713724],[-98.9986237,19.3715358],[-98.9990123,19.3717647],[-98.9993965,19.371991],[-98.9994504,19.3720228],[-98.9997978,19.3722274],[-99.0000807,19.372394],[-99.0001574,19.3724382],[-99.0001966,19.3724608],[-99.0006142,19.3727019],[-99.0010145,19.372933],[-99.0014145,19.3731638],[-99.0018281,19.3734025],[-99.0022381,19.3736392],[-99.0026485,19.373876],[-99.0029146,19.3740297],[-99.0029472,19.3740485],[-99.0033285,19.3742685],[-99.0037905,19.3745352],[-99.004223,19.3747849],[-99.0042339,19.3747911],[-99.0046233,19.3750231],[-99.0047915,19.3751233],[-99.0050406,19.3752716],[-99.0054087,19.3754909],[-99.0056906,19.3756588],[-99.0057857,19.3757154],[-99.0061602,19.3759385],[-99.0065179,19.3761515],[-99.0069173,19.3763895],[-99.0073107,19.3766237],[-99.0074604,19.3767129],[-99.0076833,19.3768457],[-99.007719,19.3768669],[-99.007743,19.3768812],[-99.0080171,19.3770445],[-99.0080466,19.377062],[-99.0084419,19.3772975],[-99.0084425,19.3772978],[-99.0085514,19.3773627],[-99.0085595,19.3773675],[-99.0086583,19.3774264],[-99.0087707,19.3774934],[-99.0089745,19.3776147],[-99.0089746,19.3776148],[-99.0091327,19.3777089],[-99.0092222,19.3777622],[-99.0092245,19.3777636],[-99.0092269,19.377765],[-99.0092712,19.3777914],[-99.0092751,19.3777937],[-99.0093244,19.3778231],[-99.0094469,19.3778961],[-99.0094547,19.3779007],[-99.0095754,19.3779729],[-99.0096209,19.3780001],[-99.0098533,19.3781391],[-99.0101647,19.3783252],[-99.0105334,19.3785194],[-99.0109691,19.3787489],[-99.0109827,19.378756],[-99.0114731,19.3790143],[-99.0117669,19.379169],[-99.0118903,19.379234],[-99.0123631,19.3794831],[-99.0125177,19.3795645],[-99.0128094,19.3797181],[-99.0132845,19.3799683],[-99.0133098,19.3799816],[-99.0137382,19.3802073],[-99.0140744,19.3803843],[-99.0141906,19.3804455],[-99.01462,19.3806717],[-99.0146615,19.3806935],[-99.0151222,19.3809361],[-99.0151323,19.3809414],[-99.0156056,19.3811882],[-99.0157919,19.3812853],[-99.0160361,19.3814127],[-99.0164198,19.3816126],[-99.0165217,19.381666],[-99.0169192,19.3818741],[-99.0170154,19.3819245],[-99.0171665,19.3820036],[-99.0172043,19.3820233],[-99.0172412,19.3820425],[-99.0175291,19.3821924],[-99.0179016,19.3823864],[-99.0179494,19.3824113],[-99.0179862,19.3824305],[-99.0183287,19.3826088],[-99.0187181,19.3828116],[-99.0187767,19.3828422],[-99.0191463,19.3830347],[-99.0195519,19.3832459],[-99.0195721,19.3832563],[-99.0199495,19.3834429],[-99.0200641,19.3834995],[-99.0203377,19.3836348],[-99.0203485,19.3836401],[-99.0207544,19.3838229],[-99.021112,19.3839839],[-99.0211669,19.3840086],[-99.0215525,19.3841823],[-99.0219276,19.3843512],[-99.0219576,19.3843647],[-99.0223523,19.3845424],[-99.0223647,19.384548],[-99.0227144,19.3847054],[-99.0227635,19.3847275],[-99.0231746,19.3849126],[-99.0235018,19.38506],[-99.0236337,19.3851194],[-99.0240179,19.3852924],[-99.0244071,19.3854677],[-99.0248054,19.385647],[-99.0248875,19.3856839],[-99.024959,19.3857161],[-99.0252284,19.3858375],[-99.0254979,19.3859588],[-99.0258845,19.3861329],[-99.026244,19.3862947],[-99.0263034,19.3863215],[-99.0266675,19.3864854],[-99.0270433,19.3866546],[-99.0274795,19.386851],[-99.027667,19.3869354],[-99.0279276,19.3870528],[-99.0282965,19.3872189],[-99.0286903,19.3873961],[-99.0287189,19.387409],[-99.0290692,19.3875667],[-99.029072,19.387568],[-99.0290737,19.3875688],[-99.0290738,19.3875688],[-99.0290748,19.3875693],[-99.0290764,19.38757],[-99.0290771,19.3875703],[-99.0290775,19.3875705],[-99.0290782,19.3875708],[-99.0294857,19.3877543],[-99.0298693,19.387927],[-99.0299542,19.3879652],[-99.030284,19.3881137],[-99.0306666,19.3882859],[-99.0308073,19.3883493],[-99.0310407,19.3884567],[-99.0314197,19.3886311],[-99.0314887,19.3886628],[-99.0318928,19.3888487],[-99.0322792,19.3890265],[-99.0326698,19.3892062],[-99.032884,19.3893048],[-99.0330627,19.389387],[-99.0334541,19.3895671],[-99.0336314,19.3896487],[-99.0338527,19.3897505],[-99.03459,19.3900897],[-99.034627,19.3901067],[-99.0349113,19.3902375],[-99.0353201,19.3904256],[-99.0357237,19.3906113],[-99.0357482,19.3906225],[-99.036153,19.3908088],[-99.0365002,19.3909685],[-99.0369439,19.3911727],[-99.0371297,19.3912582],[-99.0373166,19.3913443],[-99.037714,19.3915272],[-99.0381047,19.391707],[-99.0381897,19.3917461],[-99.0385026,19.3918901],[-99.0385036,19.3918906],[-99.038504,19.3918908],[-99.0385043,19.3918909],[-99.0385055,19.3918914],[-99.0388891,19.392068],[-99.0392887,19.3922519],[-99.0397182,19.3924496],[-99.0400273,19.3925919],[-99.0401501,19.3926484],[-99.0404463,19.3927847],[-99.0408249,19.3929589],[-99.0408527,19.3929717],[-99.041204,19.3931334],[-99.0416071,19.3933189],[-99.0417642,19.3933903],[-99.0418327,19.3934215],[-99.0422755,19.3936229],[-99.0422761,19.3936232],[-99.0422765,19.3936234],[-99.0422805,19.3936252],[-99.0422855,19.3936275],[-99.0426987,19.3938155],[-99.0430677,19.3939833],[-99.0432535,19.3940678],[-99.0434834,19.3941724],[-99.0439054,19.3943643],[-99.044329,19.3945571],[-99.0444735,19.3946228],[-99.0445967,19.3946783],[-99.0447239,19.3947356],[-99.0452503,19.3949729],[-99.0456751,19.3951643],[-99.0457877,19.3952151],[-99.0463144,19.3954524],[-99.0468662,19.3957011],[-99.0470394,19.3957792],[-99.0473974,19.3959405],[-99.0477849,19.3961152],[-99.0478958,19.3961659],[-99.0479117,19.3961732],[-99.048009,19.3962178],[-99.0481535,19.3962839],[-99.0484535,19.3964214],[-99.0488479,19.3966021],[-99.0491526,19.3967416],[-99.049248,19.3967853],[-99.0496394,19.3969646],[-99.050111,19.3971806],[-99.0505085,19.3973627],[-99.0506587,19.3974308],[-99.0508701,19.3975265],[-99.0513182,19.3977296],[-99.0513985,19.397766],[-99.0518606,19.3979753],[-99.0524598,19.3982468],[-99.0525714,19.3982974],[-99.052906,19.398449],[-99.0533196,19.3986388],[-99.053792,19.3988556],[-99.0539285,19.3989183],[-99.0541779,19.3990322],[-99.0549087,19.3993657],[-99.0549089,19.3993658],[-99.054909,19.3993659],[-99.0549092,19.3993659],[-99.0549608,19.3993895],[-99.0555705,19.3996397],[-99.0561131,19.3998623],[-99.0563007,19.3999393],[-99.0576113,19.400477],[-99.0579324,19.4006087],[-99.0581357,19.4006921],[-99.0581329,19.4007196],[-99.0581193,19.40085],[-99.0581067,19.4009721],[-99.0579246,19.4027264],[-99.0578582,19.4033659],[-99.0578078,19.4038507],[-99.0577576,19.4043345],[-99.0577161,19.4047343],[-99.0577031,19.4048603],[-99.0576517,19.4053553],[-99.0576048,19.4058062],[-99.0575501,19.4063336],[-99.057525,19.4065753],[-99.057509,19.40673],[-99.0574762,19.4070451],[-99.0573865,19.40791],[-99.0573562,19.4082019],[-99.0573177,19.4085725],[-99.057237,19.4093496],[-99.0572052,19.4096563],[-99.0571915,19.4097875],[-99.0571562,19.4101187],[-99.0570911,19.4107284],[-99.057075,19.4108788],[-99.0569223,19.4123087],[-99.0569095,19.4124286],[-99.0568466,19.4130178],[-99.0568229,19.4132397],[-99.056791,19.4135386],[-99.0567649,19.4137828],[-99.0567274,19.4141337],[-99.0566766,19.4146095],[-99.0566563,19.4147996],[-99.0566387,19.4149866],[-99.0565757,19.4156546],[-99.0565524,19.4159022],[-99.0564747,19.4167262],[-99.056444,19.4170519],[-99.0564011,19.4175074],[-99.0563115,19.418214],[-99.0563115,19.4182141],[-99.0561793,19.4192561],[-99.0561788,19.4192602],[-99.0561676,19.4193483],[-99.0561155,19.4197593],[-99.0560186,19.4205235],[-99.0560167,19.420538],[-99.0558883,19.4215505],[-99.0558363,19.4219612],[-99.0557865,19.4221411],[-99.0556219,19.4227359],[-99.0553001,19.4238985],[-99.0552954,19.4239155],[-99.0551964,19.4242734],[-99.0549344,19.4248321],[-99.0548201,19.4250756],[-99.0547306,19.4252665],[-99.054683,19.425368],[-99.0543995,19.4259724],[-99.0543938,19.4259846],[-99.0542369,19.4263191],[-99.0540576,19.4267014],[-99.0539981,19.4268282],[-99.052602,19.4299608],[-99.0524341,19.4303328],[-99.0523322,19.4305587],[-99.0512936,19.4330021],[-99.050954,19.4338011],[-99.050562,19.4347233],[-99.0499296,19.4360441],[-99.0484513,19.4391312],[-99.0482091,19.4396371],[-99.0477786,19.4403079],[-99.0472537,19.4411259],[-99.047203,19.4412049],[-99.0468706,19.4417229],[-99.0466521,19.4420635],[-99.046652,19.4420636],[-99.0464591,19.4423646],[-99.0471408,19.4431309],[-99.047386,19.4438308],[-99.0474018,19.4438597],[-99.0474911,19.4440225],[-99.0478341,19.444648],[-99.047895,19.4447591],[-99.0479285,19.4448201],[-99.0487226,19.4462681],[-99.0488158,19.4464381],[-99.0488963,19.446585],[-99.0493537,19.447419],[-99.0497508,19.4481431],[-99.0498063,19.4482443],[-99.0499436,19.4484946],[-99.0506931,19.4498614],[-99.0507346,19.449937],[-99.0507466,19.4499588],[-99.0508218,19.4500959],[-99.0508329,19.4501163],[-99.0508348,19.4501196],[-99.0508686,19.4501811],[-99.0508686,19.4501812],[-99.0509036,19.4502451],[-99.0509234,19.4502813],[-99.051075,19.4505578],[-99.0511197,19.4506391],[-99.0511471,19.4507036],[-99.0517333,19.4520807],[-99.051811,19.4522632],[-99.0518385,19.4523279],[-99.0519627,19.4526195],[-99.0519802,19.4526607],[-99.0521202,19.4529896],[-99.0521542,19.4530696],[-99.0523136,19.4534441],[-99.0523149,19.453447],[-99.052315,19.4534472],[-99.0523165,19.4534508],[-99.0524901,19.4538585],[-99.0524901,19.4538586],[-99.0524901,19.4538587],[-99.0524912,19.4538612],[-99.0524923,19.4538638],[-99.0525336,19.4539608],[-99.0525359,19.4539664],[-99.0526681,19.454268],[-99.0526687,19.4542694],[-99.0526692,19.4542705],[-99.0526694,19.4542709],[-99.0528225,19.4546205],[-99.0528426,19.4546663],[-99.0528565,19.454698],[-99.0528642,19.4547155],[-99.0530258,19.4550845],[-99.0530262,19.4550852],[-99.0530263,19.4550856],[-99.0530273,19.4550877],[-99.0530287,19.455091],[-99.0532114,19.455508],[-99.0532118,19.4555088],[-99.0532119,19.4555091],[-99.0532137,19.4555133],[-99.0532148,19.4555158],[-99.0532149,19.455516],[-99.053216,19.4555186],[-99.0533548,19.4558354],[-99.0533873,19.4559096],[-99.0534008,19.4559403],[-99.0534982,19.4561625],[-99.0535777,19.4563439],[-99.0535863,19.4563636],[-99.0537487,19.4567343],[-99.0537674,19.456777],[-99.0539382,19.4571669],[-99.0539479,19.457189],[-99.0541163,19.4575734],[-99.0541281,19.4576002],[-99.0542907,19.4579712],[-99.0543076,19.4580099],[-99.0544391,19.45831],[-99.0544868,19.458419],[-99.0546695,19.4588359],[-99.0546753,19.4588491],[-99.0547868,19.4591036],[-99.0548561,19.4592618],[-99.0550366,19.4596737],[-99.0552886,19.4602488],[-99.0559395,19.4618063],[-99.0559531,19.461839],[-99.0560641,19.4621044],[-99.0562931,19.4626524],[-99.0565452,19.4632556],[-99.0565688,19.4633076],[-99.0571824,19.4646621],[-99.05755,19.4654418],[-99.0577361,19.4658364],[-99.0579118,19.466209],[-99.0586581,19.4678688],[-99.0590955,19.4688416],[-99.0591173,19.46889],[-99.0591178,19.4688912],[-99.059118,19.4688917],[-99.0591183,19.4688923],[-99.0591189,19.4688937],[-99.0591193,19.4688945],[-99.0591194,19.4688947],[-99.0591391,19.4689386],[-99.059204,19.4690828],[-99.0594544,19.4696398],[-99.060397,19.471834],[-99.0608003,19.4727729],[-99.0608593,19.4729101],[-99.0614121,19.4741969],[-99.061442,19.4742666],[-99.0618309,19.4751718],[-99.0624771,19.4766236],[-99.0624833,19.4766375],[-99.0626317,19.4769709],[-99.0629963,19.4777899],[-99.063361,19.4786093],[-99.062997,19.4798193],[-99.0636104,19.4799696],[-99.0632778,19.4812676],[-99.0633105,19.4812749],[-99.0637453,19.4813708],[-99.0637457,19.4813709],[-99.0637463,19.481371],[-99.063747,19.4813712],[-99.0639961,19.4814261],[-99.0641765,19.4814659],[-99.0645077,19.481539],[-99.0645589,19.4815503],[-99.0646997,19.4816564],[-99.0648529,19.481836],[-99.065145,19.4825279],[-99.0651529,19.4825465],[-99.0653769,19.4830773],[-99.0653855,19.4830977],[-99.0654084,19.4831518],[-99.0654641,19.4832838],[-99.0656628,19.4837544],[-99.0657847,19.484043],[-99.0659296,19.4843864],[-99.0660614,19.4846986],[-99.0660729,19.4847258],[-99.0661868,19.4849955],[-99.0662929,19.4852468],[-99.0663196,19.4853101],[-99.0664606,19.4856441],[-99.0665837,19.4859358],[-99.0667143,19.4862451],[-99.0667258,19.4862723],[-99.0669881,19.4868936],[-99.0670364,19.4870079],[-99.0671181,19.4872016],[-99.0672781,19.4875804],[-99.0673101,19.4876563],[-99.0674868,19.4880747],[-99.0675133,19.4881377],[-99.0675845,19.4883063],[-99.0676224,19.488396],[-99.0678507,19.4889367],[-99.0679226,19.4890115],[-99.0679913,19.4890832],[-99.0679526,19.4891776],[-99.0674412,19.4904233],[-99.0672497,19.4908898],[-99.0671051,19.4912419],[-99.0669465,19.4916283],[-99.0667926,19.4920033],[-99.066702,19.4922239],[-99.0666669,19.4923094],[-99.0666338,19.4923901],[-99.066301,19.4932007],[-99.0661087,19.4936691],[-99.0661076,19.4936717],[-99.066107,19.4936732],[-99.066107,19.4936733],[-99.0661065,19.4936744],[-99.0661052,19.4936776],[-99.0659349,19.4940923],[-99.065524,19.4950216],[-99.0654485,19.4951924],[-99.0652715,19.4955927],[-99.0652528,19.495635],[-99.0652265,19.4956944],[-99.0651187,19.4959381],[-99.0649613,19.4962942],[-99.0648445,19.4965581],[-99.0647073,19.4968685],[-99.0646533,19.4969905],[-99.0643218,19.4977402],[-99.0643097,19.4977677],[-99.0642053,19.4980037],[-99.0638625,19.4987787],[-99.06463,19.4990698],[-99.065212,19.4992905],[-99.0653048,19.4993257],[-99.0659789,19.4995813],[-99.066947,19.4999484],[-99.0673436,19.5000989],[-99.0680919,19.5003826],[-99.068425,19.5005089],[-99.0688125,19.5006558],[-99.0691928,19.5008001],[-99.0696798,19.5009875],[-99.0701255,19.5011591],[-99.070683,19.5013737],[-99.0714332,19.5016625],[-99.0723409,19.5020118],[-99.0728228,19.5021973],[-99.0729824,19.5022588],[-99.0732227,19.5023512],[-99.0733291,19.5023922],[-99.073505,19.5024599],[-99.0740221,19.5026589],[-99.0741386,19.5027038],[-99.0742783,19.5027576],[-99.0747713,19.5029473],[-99.074902,19.5029976],[-99.0752275,19.5031229],[-99.0756882,19.5033002],[-99.0759976,19.5034193],[-99.0760482,19.5034388],[-99.0764391,19.5035881],[-99.0772154,19.5038846],[-99.0774749,19.5040051],[-99.077653,19.5040879],[-99.0778986,19.504202],[-99.0788524,19.5046088],[-99.0792152,19.5047636],[-99.0796298,19.5049404],[-99.0800419,19.5051214],[-99.0800865,19.505141],[-99.0805647,19.5053511],[-99.0810097,19.5055466],[-99.0814493,19.5057397],[-99.0817738,19.5058823],[-99.0818879,19.5059324],[-99.082336,19.5061292],[-99.0827954,19.5063311],[-99.0827993,19.5063328],[-99.0832504,19.506531],[-99.0837151,19.5067351],[-99.0841474,19.506925],[-99.0846233,19.5071341],[-99.0848995,19.5072554],[-99.0850706,19.5073306],[-99.0854039,19.507477],[-99.0857221,19.5076084],[-99.0864801,19.5079213],[-99.0869214,19.5081035],[-99.0872697,19.5082473],[-99.0873715,19.5082893],[-99.087558,19.5083663],[-99.087824,19.5084761],[-99.0882974,19.5086715],[-99.0886204,19.5088049],[-99.0889434,19.5089383],[-99.0893434,19.5091034],[-99.0894927,19.5091549],[-99.0899607,19.5093165],[-99.090115,19.5093697],[-99.0901704,19.5093888],[-99.0902563,19.5094185],[-99.0903529,19.5094619],[-99.0903536,19.5094622],[-99.0903538,19.5094623],[-99.0903856,19.5094768],[-99.0903857,19.5094768],[-99.0904008,19.5094836],[-99.0905124,19.5095337],[-99.0905267,19.5095401],[-99.0905579,19.5095541],[-99.0905973,19.5095719],[-99.090675,19.5096068],[-99.0907498,19.5096405],[-99.0908499,19.5096855],[-99.0908881,19.5097026],[-99.0918938,19.510155],[-99.0928973,19.5106064],[-99.093179,19.5107331],[-99.0945096,19.5113315],[-99.0948956,19.5115051],[-99.0950217,19.5115619],[-99.0956129,19.5118277],[-99.0958107,19.5119167],[-99.0971616,19.5125243],[-99.0973995,19.5126312],[-99.097857,19.5125189],[-99.0982719,19.5124169],[-99.0983546,19.5123966],[-99.0986225,19.5123308],[-99.0988888,19.5122654],[-99.0992003,19.5121889],[-99.0994326,19.5121318],[-99.0994906,19.5121175],[-99.0997693,19.5120491],[-99.1005205,19.5118645],[-99.1005885,19.5118478],[-99.1009715,19.5117722],[-99.1010839,19.51175],[-99.1013952,19.5116884],[-99.1021654,19.5115363],[-99.1022021,19.511529],[-99.1023247,19.5115048],[-99.1023374,19.5115023],[-99.1024148,19.511487],[-99.1027241,19.5114259],[-99.1028283,19.5114053],[-99.1034307,19.5112862],[-99.1038601,19.5110889],[-99.1042029,19.5109314],[-99.1043871,19.5108467],[-99.1048093,19.5106528],[-99.1055157,19.5103281],[-99.1059316,19.5098864],[-99.1060266,19.5099931],[-99.1061228,19.5101549],[-99.1062242,19.5102431],[-99.1064299,19.5103211],[-99.1064578,19.5103404],[-99.1064625,19.5103437],[-99.1065819,19.5104262],[-99.1067395,19.5104451],[-99.106933,19.5102703],[-99.1070123,19.5102036],[-99.1070424,19.5101784],[-99.1070939,19.5100639],[-99.1073043,19.509685],[-99.1073664,19.5099345],[-99.1073886,19.5100237],[-99.1074426,19.5102878],[-99.1074631,19.5104066],[-99.1075119,19.5106898],[-99.1076355,19.5110265],[-99.1076807,19.5109062],[-99.1076999,19.5108551],[-99.1078386,19.5104625],[-99.1086456,19.5104913],[-99.108668,19.5105677],[-99.1087412,19.5107089],[-99.1087633,19.5107516],[-99.1088687,19.510931],[-99.1089741,19.5111104],[-99.1091447,19.5107425],[-99.1092274,19.5105814],[-99.1094331,19.510312],[-99.1098979,19.5104585],[-99.1099898,19.5106189],[-99.1102319,19.5110416],[-99.1102706,19.5110558],[-99.1105598,19.5111623],[-99.1105858,19.5111719],[-99.1105893,19.5111731],[-99.1144071,19.5110608],[-99.1159288,19.5130518],[-99.1168819,19.5132369],[-99.1172415,19.5135027],[-99.1208732,19.516187],[-99.120972,19.5162601],[-99.1209818,19.5162673],[-99.1210147,19.5162917],[-99.1238884,19.5191294],[-99.1240061,19.5192456],[-99.124192,19.5194291],[-99.1242475,19.519484],[-99.1243418,19.5195771],[-99.1243645,19.5195995],[-99.1247711,19.5200009],[-99.1250536,19.52028],[-99.1250628,19.5202891],[-99.1252764,19.5204999],[-99.125393,19.5206327],[-99.1257376,19.521025],[-99.1258985,19.5212082],[-99.1259247,19.5212589],[-99.1261641,19.5217212],[-99.1261654,19.5217236],[-99.1261666,19.5217259],[-99.1264147,19.5222052],[-99.1264406,19.5222552],[-99.1267214,19.5227975],[-99.1267275,19.5228093],[-99.1270635,19.5234581],[-99.1270903,19.5235099],[-99.1272439,19.5238066],[-99.1272982,19.5239115],[-99.1273504,19.5240122],[-99.1273843,19.5240676],[-99.1274975,19.5241708],[-99.1276153,19.5242414],[-99.1277331,19.524312],[-99.1277964,19.5243631],[-99.1280046,19.5245311],[-99.1281056,19.5252931],[-99.1281836,19.5258813],[-99.128083,19.5266094],[-99.1273779,19.5317107],[-99.1273677,19.5350839],[-99.1305746,19.5360913],[-99.1302773,19.5364954],[-99.1299105,19.5369939],[-99.1281464,19.5393915],[-99.1274346,19.5401311],[-99.1262755,19.5413354],[-99.1259818,19.5416405],[-99.1256926,19.5419972],[-99.1256526,19.5420466],[-99.1253747,19.5423892],[-99.1252881,19.5425114],[-99.1246929,19.5433513],[-99.1246428,19.543422],[-99.1242139,19.5440273],[-99.1241909,19.5440493],[-99.1235072,19.5447032],[-99.1233666,19.5448377],[-99.1232272,19.544971],[-99.122733,19.5454437],[-99.1226375,19.5456248],[-99.1225657,19.5457607],[-99.1222365,19.5463845],[-99.1221535,19.546542],[-99.1219787,19.5468731],[-99.1218826,19.5471035],[-99.1217469,19.5474285],[-99.1216337,19.5476996],[-99.121463,19.5481086],[-99.1213097,19.5484757],[-99.1212176,19.5486963],[-99.1210357,19.549132],[-99.1204363,19.5498481],[-99.1203735,19.5499232],[-99.1184801,19.5521852],[-99.1156215,19.5540396],[-99.1156851,19.5557557],[-99.1157186,19.5566603],[-99.1148529,19.5575956],[-99.1112411,19.5614978],[-99.1080972,19.5648885],[-99.111818,19.5687269],[-99.1123923,19.5712367],[-99.1128559,19.5732626],[-99.1129656,19.5737417],[-99.1146617,19.5797963],[-99.1169061,19.5814446],[-99.1185976,19.5844617],[-99.1178879,19.5905923],[-99.1184538,19.5910955],[-99.1187213,19.5913332],[-99.118959,19.5915446],[-99.1194622,19.591992],[-99.1195268,19.5920036],[-99.1196494,19.5920257],[-99.1207844,19.5922304],[-99.1221486,19.5924765],[-99.1237061,19.5927573],[-99.1269926,19.5885077],[-99.1283626,19.5880072],[-99.1307103,19.5871495],[-99.1337609,19.5862436],[-99.1337597,19.5848881],[-99.1348412,19.5839088],[-99.1379044,19.5811347],[-99.1391417,19.5784679],[-99.1395681,19.575395],[-99.1403891,19.5747516],[-99.1434568,19.5723471],[-99.1436652,19.5721838],[-99.1447605,19.5708274],[-99.1458074,19.5687481],[-99.1458905,19.5674906],[-99.1458928,19.5674559],[-99.1459956,19.5659013],[-99.1468048,19.5646355],[-99.1489956,19.5623745],[-99.1491859,19.5620129],[-99.1509006,19.5605203],[-99.1516165,19.5613783],[-99.1528087,19.5619647],[-99.1533327,19.5615576],[-99.1542382,19.5613761],[-99.1561438,19.5601545],[-99.1580955,19.5573513],[-99.158047,19.5564929],[-99.1577605,19.5559509],[-99.157569,19.5550474],[-99.158092,19.5536914],[-99.1592819,19.551883],[-99.1609,19.5492609],[-99.160075,19.5491079],[-99.1599893,19.5491265],[-99.1597646,19.5491753],[-99.1596777,19.5492195],[-99.1595085,19.5492303],[-99.159272,19.5492138],[-99.1592083,19.5492023],[-99.1592071,19.5491658],[-99.1593486,19.5490882],[-99.1593802,19.5489803],[-99.1592533,19.5489555],[-99.1585285,19.5488211],[-99.1585454,19.5487491],[-99.1586458,19.5483203],[-99.1581881,19.5481185],[-99.1580653,19.5480643],[-99.1575745,19.5478478],[-99.1570005,19.5475946],[-99.1565545,19.5473979],[-99.155851,19.5470876],[-99.1554023,19.5468896],[-99.1553544,19.5468685],[-99.1553326,19.5468582],[-99.1546677,19.5465432],[-99.1543808,19.5464072],[-99.1541825,19.5463133],[-99.1530265,19.5457656],[-99.1529208,19.5457155],[-99.1528756,19.5456941],[-99.1515202,19.5450519],[-99.1510989,19.5448524],[-99.1510849,19.5448457],[-99.1512167,19.5446298],[-99.1514219,19.5442936],[-99.1516353,19.5439439],[-99.1519617,19.543409],[-99.1519751,19.5433879],[-99.1520736,19.5432318],[-99.1520739,19.5432314],[-99.1520741,19.543231],[-99.1520747,19.5432301],[-99.1520757,19.5432284],[-99.1520922,19.5432024],[-99.1522569,19.5429416],[-99.152393,19.542726],[-99.1526446,19.5423275],[-99.1529312,19.5418736],[-99.1532345,19.5413934],[-99.1532519,19.5413658],[-99.153333,19.5412374],[-99.1535734,19.5408783],[-99.1539482,19.5403186],[-99.1539568,19.5403058],[-99.1541079,19.5400801],[-99.1546474,19.5394235],[-99.1553178,19.5386078],[-99.1560453,19.5377224],[-99.1566876,19.5369408],[-99.1570655,19.5364809],[-99.1573349,19.5361531],[-99.1579188,19.5354425],[-99.1579342,19.5354239],[-99.158045,19.535289],[-99.1585135,19.533921],[-99.158438,19.5338791],[-99.1578441,19.5335493],[-99.1570806,19.5331254],[-99.1569836,19.5330715],[-99.1558473,19.5324405],[-99.155859,19.5324251],[-99.156132,19.5320697],[-99.1564943,19.5315979],[-99.1566589,19.5313836],[-99.1566626,19.5313788],[-99.1569074,19.5310601],[-99.1571923,19.5306891],[-99.157371,19.5304564],[-99.157401,19.5304174],[-99.1574134,19.5304013],[-99.1574685,19.5303296],[-99.158309,19.5292351],[-99.158424,19.5290854],[-99.1584332,19.5290733],[-99.158517,19.5289642],[-99.1585987,19.5288579],[-99.1583411,19.5287514],[-99.1571454,19.5282575],[-99.1567981,19.5280908],[-99.1573155,19.5278777],[-99.1588291,19.5272543],[-99.1590144,19.527057],[-99.1591587,19.5269034],[-99.1595576,19.5270129],[-99.159858,19.5270954],[-99.1603482,19.5272301],[-99.1607006,19.5273268],[-99.1610311,19.5274176],[-99.1611597,19.5274529],[-99.1616581,19.5275898],[-99.1617009,19.5276016],[-99.1617664,19.5276196],[-99.1619819,19.5276788],[-99.1621228,19.5277175],[-99.1621929,19.5277367],[-99.1626065,19.5278503],[-99.162785,19.5278993],[-99.1630198,19.5279638],[-99.1641668,19.5282788],[-99.1645694,19.5283904],[-99.16524,19.5285762],[-99.1658129,19.5287349],[-99.166253,19.5288569],[-99.1667161,19.5289854],[-99.167436,19.5291851],[-99.1676725,19.5292508],[-99.1677286,19.5292701],[-99.1680037,19.5293648],[-99.1681348,19.52941],[-99.1686123,19.5295745],[-99.1687447,19.5296201],[-99.1691471,19.5297586],[-99.1698635,19.5300052],[-99.1699791,19.530045],[-99.1703811,19.5301833],[-99.1704232,19.5301978],[-99.1714709,19.5305584],[-99.1716469,19.530619],[-99.1719144,19.530711],[-99.1719727,19.5307311],[-99.1723341,19.5308555],[-99.1723727,19.5308688],[-99.17265,19.5309836],[-99.1740703,19.5315717],[-99.1745264,19.5317113],[-99.1749541,19.5318781],[-99.1754237,19.5319771],[-99.1760115,19.532036],[-99.1760637,19.5318319],[-99.1762644,19.5310485],[-99.1763495,19.5307164],[-99.1762786,19.5306426],[-99.1770457,19.5293285],[-99.1766156,19.5291091],[-99.1765806,19.5290913],[-99.1762635,19.5289296],[-99.1761645,19.5288791],[-99.1761536,19.5288735],[-99.1757653,19.5294717],[-99.1755233,19.5298445],[-99.1753609,19.5300946],[-99.1752638,19.530032],[-99.174372,19.529381],[-99.1738342,19.5289826],[-99.1734537,19.5287007],[-99.173411,19.5286702],[-99.1729915,19.5283703],[-99.1728327,19.5282568],[-99.1726102,19.5280977],[-99.1725898,19.5280832],[-99.1725345,19.528043],[-99.172115,19.5277385],[-99.171799,19.5275091],[-99.1717573,19.5274788],[-99.1713673,19.5271885],[-99.1719379,19.5266632],[-99.1721399,19.5264771],[-99.1723612,19.5262734],[-99.1730714,19.5255961],[-99.1731425,19.5255283],[-99.1734589,19.5252266],[-99.1737613,19.5249383],[-99.1739937,19.5247165],[-99.1742065,19.5245137],[-99.17445,19.5242561],[-99.1746307,19.524065],[-99.1743883,19.5237409],[-99.1743129,19.5236402],[-99.1741823,19.5234656],[-99.1737055,19.5233198],[-99.1732354,19.5231761],[-99.1729995,19.5231039],[-99.172771,19.5230341],[-99.172562,19.5229702],[-99.1722914,19.5228805],[-99.171827,19.5227266],[-99.1718072,19.5227201],[-99.1713757,19.5225771],[-99.1708906,19.5224163],[-99.1708475,19.522402],[-99.1705207,19.522274],[-99.1704387,19.5222419],[-99.1699627,19.5220554],[-99.1695039,19.5217867],[-99.1690878,19.5215429],[-99.1686482,19.5212854],[-99.1682297,19.5210401],[-99.1677835,19.5207787],[-99.1677828,19.5207783],[-99.1677826,19.5207782],[-99.1677817,19.5207777],[-99.1673353,19.5205161],[-99.1673092,19.5205008],[-99.1672612,19.5204727],[-99.1668173,19.5202126],[-99.1664113,19.5199748],[-99.1659594,19.51971],[-99.1647344,19.5189923],[-99.1647343,19.5189922],[-99.1647342,19.5189921],[-99.1647341,19.5189921],[-99.164098,19.5186194],[-99.1636295,19.5183449],[-99.1629752,19.5179615],[-99.1628886,19.5177355],[-99.1624801,19.5166703],[-99.162302,19.5162057],[-99.1622344,19.5160295],[-99.161775,19.5148314],[-99.1612567,19.5134796],[-99.161069,19.5129899],[-99.1609639,19.5127157],[-99.1609604,19.5127067],[-99.1608471,19.5124112],[-99.1608415,19.5123966],[-99.1608414,19.5123964],[-99.1608414,19.5123963],[-99.1608413,19.5123962],[-99.1606661,19.5119391],[-99.1601883,19.510693],[-99.1596095,19.5091833],[-99.1595894,19.5091308],[-99.1595112,19.5089269],[-99.1595112,19.5089268],[-99.1595112,19.5089267],[-99.1594605,19.5087945],[-99.1590496,19.5077228],[-99.1590496,19.5077227],[-99.1590495,19.5077226],[-99.1590495,19.5077225],[-99.1590494,19.5077224],[-99.1588523,19.5072081],[-99.1588444,19.5071875],[-99.1584373,19.5061256],[-99.1583575,19.5059175],[-99.1578797,19.5046713],[-99.1577524,19.5043391],[-99.1577019,19.5042074],[-99.1571811,19.5028489],[-99.1592521,19.5035099],[-99.1597343,19.5036638],[-99.1601419,19.5037939],[-99.1602137,19.5038168],[-99.1602693,19.5038345],[-99.1604386,19.5038886],[-99.1606967,19.503971],[-99.1611378,19.5041117],[-99.1614011,19.5041958],[-99.1616173,19.5042648],[-99.1617867,19.5043188],[-99.1620677,19.5044085],[-99.162559,19.5045653],[-99.1628665,19.5046635],[-99.1628977,19.5046734],[-99.1629901,19.5047029],[-99.163456,19.5048516],[-99.1639378,19.5050053],[-99.1644109,19.5051691],[-99.1649405,19.5053524],[-99.1653766,19.5055034],[-99.1658555,19.5056692],[-99.1663163,19.5058287],[-99.1670781,19.5060924],[-99.1673133,19.5061907],[-99.1673707,19.5062147],[-99.168689,19.5067656],[-99.1688,19.5068217],[-99.1691093,19.506978],[-99.1691433,19.5069951],[-99.1695346,19.5071929],[-99.169956,19.5074058],[-99.1704139,19.5076373],[-99.1708782,19.5078049],[-99.1712918,19.5079543],[-99.1716042,19.5080671],[-99.1725994,19.5084265],[-99.1730429,19.5085867],[-99.1735652,19.508257],[-99.1736656,19.5081922],[-99.1737126,19.5081619],[-99.1740405,19.50795],[-99.1748752,19.5075972],[-99.1751841,19.5075314],[-99.1753648,19.5074929],[-99.1754028,19.5074848],[-99.1755381,19.507456],[-99.1760257,19.5069489],[-99.1760719,19.5069008],[-99.1766245,19.5065022],[-99.1767378,19.5064204],[-99.1770504,19.5061949],[-99.1770633,19.5061983],[-99.1773356,19.5062708],[-99.1773685,19.5062796],[-99.1774101,19.5062906],[-99.177411,19.5062909],[-99.1774112,19.5062909],[-99.1774118,19.5062911],[-99.1774631,19.5063047],[-99.177499,19.5063143],[-99.1819157,19.5074898],[-99.1822908,19.5074698],[-99.182307,19.5074792],[-99.1823405,19.5074988],[-99.1824468,19.507561],[-99.182449,19.5075622],[-99.18245,19.5075628],[-99.1824501,19.5075628],[-99.1824511,19.5075634],[-99.1827005,19.5077091],[-99.1830759,19.5078324],[-99.1834794,19.507965],[-99.1838278,19.5080794],[-99.1842508,19.5082183],[-99.1846169,19.5083385],[-99.1851289,19.5085067],[-99.1852214,19.5085371],[-99.185385,19.5086131],[-99.1860057,19.5089013],[-99.1861061,19.5089478],[-99.1861666,19.508976],[-99.1865617,19.5091594],[-99.1869865,19.5093566],[-99.1869866,19.5093567],[-99.1869868,19.5093567],[-99.1870003,19.5093622],[-99.1873694,19.5095135],[-99.1873825,19.5095189],[-99.1874395,19.5095422],[-99.1874642,19.5095523],[-99.1874689,19.5095543],[-99.1874967,19.5095657],[-99.1884311,19.5099485],[-99.1885516,19.5099733],[-99.1889292,19.510051],[-99.1889532,19.5100559],[-99.1896896,19.5102074],[-99.1896897,19.5102075],[-99.1903928,19.5103521],[-99.1906745,19.51041],[-99.1914984,19.5105795],[-99.1918979,19.5112731],[-99.1919039,19.5112749],[-99.1920315,19.5113135],[-99.1939183,19.5118842],[-99.1940063,19.5119108],[-99.1940337,19.5119191],[-99.1966227,19.5127021],[-99.1966311,19.5127046],[-99.1967205,19.5127316],[-99.1969423,19.5127987],[-99.1986449,19.5133136],[-99.1987997,19.5133604],[-99.1990361,19.5134319],[-99.1990584,19.5134386],[-99.1990684,19.5134417],[-99.1991748,19.5134738],[-99.1993878,19.5135382],[-99.1997388,19.5136444],[-99.1999689,19.5137139],[-99.2001033,19.5137546],[-99.2001587,19.5137713],[-99.2001731,19.5137757],[-99.2002962,19.5138129],[-99.2008002,19.5139653],[-99.2009747,19.5140181],[-99.2017045,19.5142388],[-99.2018881,19.5142943],[-99.2018886,19.5142945],[-99.2018892,19.5142946],[-99.2018966,19.5142969],[-99.2025799,19.5145035],[-99.2025818,19.5145041],[-99.2025826,19.5145043],[-99.2025833,19.5145045],[-99.2025835,19.5145046],[-99.2025836,19.5145046],[-99.2025837,19.5145046],[-99.2025912,19.5145069],[-99.2026012,19.5145099],[-99.2027346,19.5145503],[-99.2029301,19.5146094],[-99.2029356,19.5146111],[-99.2029404,19.5146125],[-99.2029408,19.5146126],[-99.2029409,19.5146126],[-99.2029413,19.5146128],[-99.2032326,19.5147008],[-99.2035315,19.5147912],[-99.2039066,19.5149046],[-99.2043351,19.5150342],[-99.2046716,19.515136],[-99.2049605,19.5149643],[-99.2051402,19.5148575],[-99.2052372,19.5147999],[-99.2055228,19.5146035],[-99.2058096,19.5144063],[-99.205919,19.514331],[-99.2061742,19.5141916],[-99.2065983,19.5139598],[-99.2070161,19.5137315],[-99.2071293,19.5136696],[-99.2080951,19.5132182],[-99.2081438,19.5131954],[-99.2085237,19.5129588],[-99.208706,19.5128453],[-99.2088607,19.512749],[-99.2089705,19.5126806],[-99.2090732,19.5125834],[-99.2090781,19.5125788],[-99.2091947,19.5124685],[-99.209255,19.5124114],[-99.2092575,19.512409],[-99.209316,19.5123068],[-99.2093818,19.5121918],[-99.2094056,19.5121503],[-99.2094962,19.5119921],[-99.2096293,19.5118153],[-99.2096364,19.5118059],[-99.2096405,19.5118005],[-99.2096615,19.5117726],[-99.2096746,19.5117552],[-99.2096918,19.5117324],[-99.2098016,19.5116032],[-99.2099445,19.5114351],[-99.2099871,19.5113783],[-99.210022,19.5113318],[-99.2100549,19.5112879],[-99.2100639,19.5112758],[-99.2100662,19.5112727],[-99.2100863,19.5112454],[-99.2101642,19.5111391],[-99.2102406,19.5108923],[-99.2103231,19.5106704],[-99.2103716,19.5105399],[-99.2104751,19.5100716],[-99.2106334,19.5095567],[-99.2106871,19.5093834],[-99.2106978,19.5093484],[-99.210698,19.5093479],[-99.2106982,19.5093473],[-99.2107796,19.5090848],[-99.2110524,19.5084445],[-99.2111616,19.5080303],[-99.2112191,19.5078122],[-99.2113771,19.5072124],[-99.2114449,19.5067229],[-99.2116838,19.5049965],[-99.2119664,19.5036363],[-99.2119925,19.5035107],[-99.212235,19.5026612],[-99.21232,19.5023709],[-99.2124984,19.5017619],[-99.2128648,19.5005221],[-99.2134631,19.4984088],[-99.2135008,19.4982754],[-99.2136844,19.4977197],[-99.2138389,19.4972521],[-99.2138909,19.4970947],[-99.2141161,19.4964133],[-99.2143722,19.4956381],[-99.2146069,19.4949277],[-99.2148237,19.4942718],[-99.214982,19.4937925],[-99.2152029,19.4931241],[-99.2153867,19.4925678],[-99.2154469,19.4923855],[-99.2156982,19.4916248],[-99.2157044,19.4916061],[-99.2157168,19.4915685],[-99.2160066,19.4906915],[-99.2161801,19.4901665],[-99.2162791,19.4898876],[-99.2162967,19.4898381],[-99.2164498,19.4894068],[-99.2165398,19.4891534],[-99.2168579,19.4882576],[-99.2171581,19.4874121],[-99.2171633,19.4873974],[-99.2173122,19.4869782],[-99.2173627,19.4868358],[-99.2174992,19.4864515],[-99.2180458,19.484912],[-99.2181565,19.4845973],[-99.2183381,19.4840811],[-99.2185193,19.4835657],[-99.2186074,19.4833153],[-99.2188287,19.4826859],[-99.2191376,19.4818079],[-99.2194559,19.4809025],[-99.2196627,19.4803145],[-99.2197722,19.4799748],[-99.2200477,19.4791199],[-99.2203368,19.4782229],[-99.2203586,19.4781552],[-99.2204995,19.4777178],[-99.2207101,19.4768115],[-99.22092,19.4759081],[-99.2211151,19.4750685],[-99.2205583,19.4749184],[-99.2201581,19.4748105],[-99.2195105,19.4746359],[-99.2188472,19.474457],[-99.2181701,19.4742745],[-99.2175044,19.474095],[-99.2168773,19.4739259],[-99.2161732,19.473736],[-99.2158632,19.4736524],[-99.21554,19.4735653],[-99.2151681,19.473465],[-99.2148778,19.4733867],[-99.2148634,19.4733829],[-99.2144846,19.4732807],[-99.2142256,19.4732109],[-99.2142158,19.4732082],[-99.2138793,19.4731175],[-99.2135613,19.4730317],[-99.2132929,19.4729594],[-99.2126284,19.4727802],[-99.2120448,19.4726228],[-99.2114127,19.4724523],[-99.2108151,19.4722912],[-99.2108028,19.4722878],[-99.210784,19.4722828],[-99.2103299,19.4721603],[-99.2100331,19.4720803],[-99.2099962,19.4720703],[-99.2096348,19.4719729],[-99.209273,19.4718753],[-99.2092361,19.4718653],[-99.2089556,19.4717897],[-99.2083692,19.4716315],[-99.2083493,19.4716262],[-99.2079674,19.4715232],[-99.2077729,19.4714707],[-99.206825,19.4712151],[-99.2071736,19.4695681],[-99.2076857,19.469724],[-99.2080146,19.4698241],[-99.208152,19.469866],[-99.2081696,19.4698713],[-99.2082115,19.4698841],[-99.2086926,19.4700305],[-99.2087055,19.4700345],[-99.2088627,19.4700823],[-99.2089012,19.4700565],[-99.209912,19.4693816],[-99.2104506,19.4687858],[-99.2105646,19.4686583],[-99.2107234,19.4684808],[-99.2109607,19.4682675],[-99.2113715,19.4680364],[-99.2114347,19.4680009],[-99.2115367,19.4679934],[-99.2116392,19.4674062],[-99.2117288,19.4671379],[-99.2117853,19.4670819],[-99.2119419,19.4670792],[-99.2121484,19.4671139],[-99.2123931,19.4663787],[-99.2135444,19.462919],[-99.2135225,19.4629078],[-99.2129639,19.4626216],[-99.2126315,19.4624514],[-99.2126393,19.4624391],[-99.2139393,19.4604059],[-99.2140445,19.4595181],[-99.2142235,19.4586738],[-99.2142479,19.4585588],[-99.2148561,19.4573713],[-99.2151659,19.4565429],[-99.215202,19.4564462],[-99.2152208,19.4563958],[-99.2152526,19.4563109],[-99.2152851,19.4562239],[-99.2157283,19.4556182],[-99.2159747,19.4552928],[-99.216077,19.4551577],[-99.2162739,19.4548976],[-99.2164212,19.4547143],[-99.2167665,19.4542845],[-99.2169545,19.4540918],[-99.2169784,19.4540672],[-99.2173648,19.4536711],[-99.2179151,19.4533617],[-99.2180885,19.4532739],[-99.2181364,19.4532497],[-99.2181999,19.4532175],[-99.2185226,19.4530541],[-99.218541,19.453051],[-99.2185823,19.4530441],[-99.2188517,19.4529991],[-99.2190143,19.4529718],[-99.2191957,19.4529415],[-99.2194015,19.4529209],[-99.2197717,19.4528839],[-99.2199728,19.4528801],[-99.2199629,19.4521545],[-99.2199592,19.4518786],[-99.2199547,19.4515493],[-99.2201157,19.4489982],[-99.2201276,19.4479873],[-99.2201361,19.4472773],[-99.220146,19.4464413],[-99.2201474,19.4462718],[-99.2201487,19.4461164],[-99.2201129,19.445971],[-99.2200603,19.4457592],[-99.2199766,19.4455569],[-99.2198532,19.4453615],[-99.2198471,19.4453542],[-99.2197609,19.4452498],[-99.2196378,19.4451199],[-99.2195362,19.4450172],[-99.2194095,19.4449057],[-99.2192258,19.4447741],[-99.2183048,19.4442991],[-99.2182163,19.444235],[-99.2181538,19.4441562],[-99.2181499,19.444148],[-99.2181329,19.4441118],[-99.2181797,19.4440575],[-99.2186893,19.4439731],[-99.2195058,19.4438685],[-99.2197375,19.4438473],[-99.2201358,19.4438108],[-99.2205828,19.4436753],[-99.2209382,19.443434],[-99.221965,19.4426865],[-99.2235843,19.4415637],[-99.2278514,19.4385587],[-99.2280987,19.4383795],[-99.2285097,19.4381106],[-99.2285655,19.438074],[-99.2286725,19.4380039],[-99.2289454,19.4378261],[-99.2290606,19.4377512],[-99.2296275,19.4373747],[-99.2295965,19.4373586],[-99.2295338,19.4373259],[-99.2286575,19.4368702],[-99.2285418,19.43681],[-99.2285557,19.4368011],[-99.2286951,19.4367115],[-99.2286759,19.4366876],[-99.2281604,19.436046],[-99.2280497,19.4361979],[-99.2273624,19.435874],[-99.227284,19.4358674],[-99.2272919,19.4358444],[-99.2275033,19.4352305],[-99.2274931,19.4350905],[-99.2274303,19.4349447],[-99.2273376,19.4347887],[-99.2273317,19.4347829],[-99.2272094,19.4346597],[-99.2270199,19.4345488],[-99.2263932,19.4342095],[-99.2262956,19.4341308],[-99.2262251,19.4340614],[-99.226215,19.4340433],[-99.2261713,19.4339653],[-99.226152,19.4338595],[-99.2261575,19.4337191],[-99.2264157,19.4327641],[-99.2266646,19.4322711],[-99.2268016,19.4318919],[-99.2268723,19.431586],[-99.2268599,19.4314443],[-99.226818,19.4313382],[-99.2268053,19.4313247],[-99.2267311,19.4312457],[-99.2266219,19.4311541],[-99.2265084,19.431073],[-99.2251752,19.4304607],[-99.2247683,19.4302515],[-99.2244308,19.4300766],[-99.224299,19.4300084],[-99.2237135,19.429706],[-99.2235535,19.4296233],[-99.2233783,19.4295051],[-99.2232858,19.4294139],[-99.2232103,19.4293069],[-99.2232095,19.429305],[-99.2231527,19.4291833],[-99.2231065,19.4290661],[-99.2230203,19.4287384],[-99.2230001,19.4286133],[-99.2229559,19.4284735],[-99.2228686,19.4281122],[-99.2227035,19.4276645],[-99.222552,19.4273171],[-99.2225423,19.4273092],[-99.2223203,19.4271301],[-99.222313,19.427113],[-99.2222744,19.427023],[-99.2223283,19.4269456],[-99.2225617,19.4267145],[-99.2226685,19.4265811],[-99.2227719,19.426386],[-99.2228036,19.4263675],[-99.2232452,19.4265649],[-99.2237843,19.4268096],[-99.2243221,19.4270184],[-99.2244675,19.42708],[-99.2246403,19.4269658],[-99.2248472,19.4268491],[-99.2251597,19.4267139],[-99.2254629,19.4265873],[-99.2257051,19.4264097],[-99.2258705,19.4262263],[-99.2260699,19.4258284],[-99.2263307,19.4252382],[-99.2266995,19.4246659],[-99.2267965,19.4245391],[-99.2270172,19.4243196],[-99.2271894,19.4242573],[-99.2274214,19.4242531],[-99.2275384,19.4242498],[-99.2276387,19.4242211],[-99.227729,19.424183],[-99.2277857,19.424129],[-99.2278324,19.4240623],[-99.2278491,19.4239735],[-99.2278621,19.4237927],[-99.2278553,19.4236785],[-99.2278519,19.423645],[-99.2278752,19.4236038],[-99.2279387,19.4235657],[-99.2280691,19.4235433],[-99.2281661,19.4235368],[-99.2283031,19.4235113],[-99.2284568,19.4234191],[-99.2284953,19.4233259],[-99.2286522,19.4231926],[-99.2287389,19.4229768],[-99.2288689,19.4227293],[-99.2289691,19.4226245],[-99.2291695,19.4224593],[-99.2293631,19.422237],[-99.2293835,19.4222045],[-99.2295419,19.4221597],[-99.2296829,19.4221032],[-99.2297619,19.4219951],[-99.2300982,19.4218257],[-99.2302856,19.4218104],[-99.2303895,19.4217985],[-99.230533,19.4217607],[-99.2306639,19.4217428],[-99.23077,19.4217338],[-99.2308435,19.4217069],[-99.2308912,19.4216371],[-99.2309262,19.4215467],[-99.230958,19.4213668],[-99.2309686,19.4212605],[-99.2310246,19.4210699],[-99.2310607,19.4209795],[-99.2311125,19.4209337],[-99.231216,19.4208577],[-99.2313068,19.42081],[-99.2315071,19.4207557],[-99.2315591,19.4207369],[-99.2315697,19.4205996],[-99.2316262,19.4203062],[-99.2316755,19.4201653],[-99.2318171,19.4199905],[-99.2321046,19.4198731],[-99.2323568,19.4197928],[-99.2323567,19.4196848],[-99.2323763,19.4195674],[-99.2324165,19.4194735],[-99.2324664,19.4194205],[-99.2325456,19.4193911],[-99.2326352,19.4193799],[-99.2329106,19.4194299],[-99.232974,19.419395],[-99.2329872,19.4192631],[-99.2329707,19.419023],[-99.232991,19.418894],[-99.2330562,19.4186604],[-99.2330909,19.418586],[-99.233069,19.4184827],[-99.2330602,19.4183877],[-99.2331218,19.4182719],[-99.2331599,19.4181578],[-99.2331912,19.4180467],[-99.2332346,19.4178389],[-99.2333635,19.4177976],[-99.2333793,19.4175602],[-99.2333845,19.4174826],[-99.233442,19.4172217],[-99.2336125,19.4165849],[-99.2337628,19.4167233],[-99.2338927,19.4167679],[-99.2340606,19.4167639],[-99.2342526,19.4166885],[-99.2343841,19.4165861],[-99.2345048,19.4163967],[-99.2346272,19.4159709],[-99.2349495,19.4157488],[-99.2354472,19.4154358],[-99.2355741,19.4152417],[-99.2356701,19.4150134],[-99.235934,19.4144969],[-99.2362029,19.4140851],[-99.2364974,19.4135958],[-99.2367475,19.4130787],[-99.2369149,19.4127066],[-99.2370471,19.4125548],[-99.2373047,19.4123596],[-99.2376138,19.4122022],[-99.2381051,19.4120805],[-99.2384004,19.4120073],[-99.238638,19.4120117],[-99.2389182,19.4120418],[-99.2396226,19.4122039],[-99.2399118,19.4121937],[-99.2401651,19.4121385],[-99.2408303,19.4119183],[-99.2414363,19.4116658],[-99.2418808,19.4114806],[-99.2423313,19.4113015],[-99.2426815,19.4110569],[-99.2430148,19.4108037],[-99.243362,19.4107197],[-99.2437002,19.4105267],[-99.2439914,19.4102049],[-99.244226,19.4099416],[-99.2450243,19.4096695],[-99.246062,19.4092842],[-99.2466188,19.4090781],[-99.2475316,19.4088137],[-99.2476876,19.4088019],[-99.2479708,19.4087804],[-99.2480941,19.4087328],[-99.248312,19.4086486],[-99.2485163,19.4084732],[-99.2486252,19.4083355],[-99.2486363,19.4083214],[-99.2486795,19.4082668],[-99.2486943,19.4082535],[-99.2487506,19.4082032],[-99.2489548,19.4080204],[-99.2491818,19.4077295],[-99.2494136,19.4075197],[-99.2497427,19.4073701],[-99.2500714,19.4072326],[-99.2503434,19.4069911],[-99.2504751,19.4068215],[-99.2505411,19.4067366],[-99.2505706,19.4066986],[-99.2506135,19.406666],[-99.2506558,19.4066338],[-99.2509417,19.4064164],[-99.2516686,19.4062327],[-99.2522171,19.4060431],[-99.2528389,19.4057391],[-99.2533366,19.4050945],[-99.2537165,19.4050115],[-99.2543467,19.4048631],[-99.2548574,19.4045543],[-99.2553096,19.4041279],[-99.255574,19.4038332],[-99.2557211,19.4036692],[-99.2558079,19.4035724],[-99.2560381,19.4035615],[-99.2560341,19.4033926],[-99.2560276,19.4031245],[-99.2560135,19.4025357],[-99.2561225,19.4022223],[-99.2561376,19.4021788],[-99.2561867,19.4020377],[-99.2563829,19.4015221],[-99.2565286,19.4011392],[-99.2566728,19.4007199],[-99.2568058,19.4005752],[-99.2568919,19.4004815],[-99.2569356,19.4004566],[-99.2569794,19.4004317],[-99.2573757,19.4011202],[-99.2574386,19.4012236],[-99.2576223,19.4015252],[-99.2576529,19.4015755],[-99.2576634,19.4015927],[-99.2576703,19.4016045],[-99.2577797,19.4017905],[-99.2581322,19.4023899],[-99.2581545,19.4024278],[-99.2582337,19.4025264],[-99.2582685,19.4026842],[-99.2582425,19.4030898],[-99.2580054,19.4039644],[-99.2577787,19.4042848],[-99.257724,19.4045086],[-99.2577229,19.4046793],[-99.2576977,19.404848],[-99.2578842,19.4048432],[-99.25813,19.4047635],[-99.258679,19.4040605],[-99.2588254,19.4037489],[-99.2589409,19.4032767],[-99.2590422,19.4024843],[-99.2592258,19.401765],[-99.2590742,19.4014628],[-99.2592671,19.4011852],[-99.2594816,19.400932],[-99.2598705,19.4005401],[-99.2604532,19.4002511],[-99.2609093,19.3999582],[-99.2611402,19.3996473],[-99.2612177,19.3993393],[-99.2613041,19.3990391],[-99.2613755,19.3988515],[-99.2614558,19.3985045],[-99.2614608,19.3982612],[-99.2614136,19.3978527],[-99.2612715,19.3974037],[-99.2613277,19.397287],[-99.2613856,19.3970382],[-99.2615553,19.3970105],[-99.2615767,19.3966868],[-99.2617185,19.3964615],[-99.2617179,19.3959889],[-99.2645046,19.3941827],[-99.2645109,19.394083],[-99.2645149,19.3940624],[-99.2645429,19.3940048],[-99.2645724,19.3939443],[-99.264621,19.393866],[-99.2646964,19.3938009],[-99.2647917,19.3937538],[-99.2649131,19.3937264],[-99.2650157,19.3937176],[-99.2651021,19.3937272],[-99.2651097,19.3931948],[-99.2660003,19.3931953],[-99.2659896,19.3927381],[-99.2671037,19.392071],[-99.2673586,19.3923309],[-99.267611,19.392415],[-99.267959,19.3924035],[-99.2681593,19.3924491],[-99.268312,19.3921349],[-99.2685625,19.3919349],[-99.2689937,19.3916798],[-99.2692527,19.3915627],[-99.2694774,19.3913623],[-99.2696187,19.3910067],[-99.2695907,19.3907875],[-99.2695381,19.3906318],[-99.2695695,19.3903838],[-99.2697714,19.3902666],[-99.2702237,19.3901115],[-99.2702356,19.3901089],[-99.2702932,19.3900962],[-99.2709121,19.3899593],[-99.2710405,19.389931],[-99.2718371,19.3897362],[-99.2724325,19.3896784],[-99.2727758,19.3893799],[-99.2729061,19.3890217],[-99.2729747,19.3885497],[-99.2730025,19.3883521],[-99.273215,19.3875869],[-99.2736028,19.3872399],[-99.2736851,19.3870367],[-99.2739453,19.3868354],[-99.2756714,19.3855],[-99.2760173,19.3852324],[-99.2760694,19.3851921],[-99.276043,19.3855822],[-99.2784737,19.3837238],[-99.2787152,19.3835391],[-99.2791211,19.3832288],[-99.2795221,19.3828074],[-99.279677,19.3826446],[-99.2800351,19.3822682],[-99.2801833,19.3822007],[-99.2801874,19.3821988],[-99.2805287,19.3820432],[-99.2817729,19.3814761],[-99.2818472,19.3814711],[-99.2826649,19.3814153],[-99.2828305,19.381404],[-99.2830569,19.3809371],[-99.2832062,19.3806293],[-99.2832106,19.3806201],[-99.2832978,19.3804403],[-99.2837711,19.379978],[-99.2838113,19.379668],[-99.2842312,19.3797915],[-99.2844605,19.3797609],[-99.2845687,19.3796883],[-99.2846764,19.3793498],[-99.2848457,19.3791114],[-99.285044,19.3790509],[-99.2851109,19.3788691],[-99.2850719,19.3779992],[-99.2856686,19.3776311],[-99.2857079,19.3772465],[-99.285697,19.3764391],[-99.2861348,19.3764319],[-99.2862231,19.3764304],[-99.2863962,19.3764335],[-99.2869093,19.3765021],[-99.2876679,19.3766822],[-99.2878083,19.3763564],[-99.2878463,19.3762683],[-99.2880525,19.3757896],[-99.2881073,19.375727],[-99.2882827,19.3755271],[-99.2886445,19.3751146],[-99.288769,19.3751247],[-99.2889467,19.3751391],[-99.2890164,19.3751448],[-99.2892707,19.3751654],[-99.2895722,19.3751898],[-99.2897154,19.3749966],[-99.2897976,19.374999],[-99.2900262,19.3750056],[-99.2901258,19.3750085],[-99.2906139,19.3750225],[-99.2907693,19.3743173],[-99.2910696,19.3740209],[-99.2911368,19.3738411],[-99.2911757,19.3734872],[-99.2916432,19.3734914],[-99.2918308,19.3733968],[-99.2920552,19.3732836],[-99.2922378,19.3730792],[-99.2922993,19.3730103],[-99.292612,19.3726601],[-99.2929217,19.3723367],[-99.2931554,19.3720221],[-99.2932332,19.3719174],[-99.2934157,19.3712068],[-99.2936475,19.3706882],[-99.2937579,19.3704412],[-99.2938894,19.3701472],[-99.2938971,19.3701441],[-99.2940796,19.3700713],[-99.294138,19.370048],[-99.2941387,19.3700477],[-99.2941393,19.3700475],[-99.2941405,19.370047],[-99.2944478,19.3699244],[-99.2947713,19.3698647],[-99.2949459,19.3697131],[-99.2950772,19.3695851],[-99.2953129,19.3693776],[-99.2955873,19.3690773],[-99.2957619,19.3691054],[-99.2958108,19.3691133],[-99.2958162,19.3691141],[-99.2962384,19.3691821],[-99.2963156,19.3691945],[-99.2963304,19.3691969],[-99.2965572,19.3692334],[-99.2969473,19.3693104],[-99.2974726,19.369414],[-99.2979171,19.3693249],[-99.2981665,19.3691867],[-99.2981748,19.3691773],[-99.2982684,19.3690716],[-99.2984246,19.3688954],[-99.2984384,19.3688798],[-99.2986242,19.368494],[-99.2987168,19.3683017],[-99.2990198,19.3675153],[-99.299683,19.3681705],[-99.3004151,19.3688939],[-99.3004159,19.3688946],[-99.3004163,19.368895],[-99.3004165,19.3688952],[-99.3004167,19.3688954],[-99.3004169,19.3688956],[-99.3004174,19.3688961],[-99.3005616,19.3690385],[-99.3005823,19.369059],[-99.3012316,19.3697005],[-99.3009962,19.3701017],[-99.3008867,19.3706181],[-99.3009442,19.3712223],[-99.3009631,19.3717692],[-99.3009966,19.3719431],[-99.3011504,19.3722331],[-99.3012589,19.3730202],[-99.3013574,19.3738353],[-99.3015572,19.3749243],[-99.3019384,19.3757569],[-99.3018501,19.3759433],[-99.3015907,19.3764901],[-99.3015672,19.3765395],[-99.3015493,19.3765774],[-99.3013091,19.3770838],[-99.3014469,19.3771312],[-99.3014754,19.3771409],[-99.3015026,19.3771503],[-99.3015567,19.3771688],[-99.3016281,19.3771933],[-99.3017367,19.3772306],[-99.3018441,19.3772675],[-99.3019147,19.3772917],[-99.3021378,19.3773683],[-99.3034777,19.3778281],[-99.3034834,19.37783],[-99.3042652,19.3773181],[-99.3042766,19.3773106],[-99.304291,19.3773012],[-99.3050053,19.3768334],[-99.3051238,19.3764917],[-99.3051848,19.3763159],[-99.3061269,19.3735999],[-99.3077649,19.3715612],[-99.3085587,19.3715736],[-99.3092807,19.3715848],[-99.3097027,19.3712365],[-99.3097775,19.3711748],[-99.3107069,19.3704077],[-99.3110944,19.3704143],[-99.311903,19.3704283],[-99.3130876,19.3704487],[-99.3138084,19.3693011],[-99.3140636,19.3683928],[-99.3145284,19.3672406],[-99.3153897,19.3658883],[-99.3168615,19.3663065],[-99.3176076,19.3657295],[-99.3180495,19.3648209],[-99.3181041,19.3642935],[-99.3181182,19.3641565],[-99.3189285,19.3638502],[-99.3193496,19.363691],[-99.3195428,19.363618],[-99.320699,19.3604438],[-99.3184916,19.3584753],[-99.318134,19.3581564],[-99.3185449,19.3579948],[-99.3187649,19.3578451],[-99.3191522,19.3576282],[-99.3201083,19.357715],[-99.3201437,19.3577416],[-99.3204378,19.3579625],[-99.3207523,19.3581987],[-99.321555,19.3585085],[-99.3220421,19.3586203],[-99.3222191,19.3586609],[-99.3228287,19.3584991],[-99.3232858,19.3583377],[-99.3237635,19.3579526],[-99.3241457,19.357335],[-99.3246763,19.356416],[-99.3250386,19.3560251],[-99.3250547,19.3557203],[-99.3253008,19.3555345],[-99.3255277,19.3552582],[-99.3257121,19.3550012],[-99.3258466,19.3545931],[-99.326392,19.3536716],[-99.3267309,19.3538223],[-99.3274313,19.3541337],[-99.327668,19.3540434],[-99.3277046,19.3536363],[-99.3280412,19.3533584],[-99.3284844,19.3530924],[-99.3286741,19.35268],[-99.3288242,19.3521046],[-99.3286461,19.3513815],[-99.3287176,19.3510076],[-99.3287568,19.3506432],[-99.3288515,19.3503562],[-99.328636,19.3499654],[-99.3284221,19.3497064],[-99.3283269,19.3494873],[-99.3283934,19.3491388],[-99.3284578,19.3489037],[-99.3285852,19.3484995],[-99.3286206,19.3483075],[-99.3286965,19.3478966],[-99.328531,19.3476088],[-99.3284473,19.3468192],[-99.3287982,19.3460384],[-99.3288813,19.3456244],[-99.3282723,19.3452024],[-99.3284799,19.3447171],[-99.3287069,19.344251],[-99.3287543,19.3438569],[-99.3289372,19.3436156],[-99.3290279,19.3433792],[-99.3291614,19.3429173],[-99.3294878,19.3422697],[-99.3297274,19.3416225],[-99.3302006,19.3411241],[-99.3303305,19.3409872],[-99.3306664,19.3400632],[-99.331152,19.3397756],[-99.3311916,19.3394279],[-99.3311904,19.3387922],[-99.3314648,19.3384266],[-99.3315918,19.3381091],[-99.3316882,19.3377935],[-99.3316433,19.3366322],[-99.3318206,19.3355372],[-99.3319149,19.3349543],[-99.332307,19.3335181],[-99.3327948,19.3324157],[-99.3334279,19.3313711],[-99.3338421,19.3305904],[-99.3566078,19.3066758],[-99.3563686,19.3033334],[-99.3562742,19.3020145],[-99.3499853,19.2968372],[-99.3534978,19.2974018],[-99.3529238,19.2960474],[-99.3516927,19.2952494],[-99.3516927,19.2952493],[-99.3512559,19.2949661],[-99.3512567,19.2949631],[-99.3512568,19.2949628],[-99.3514921,19.2941524],[-99.3519543,19.2941405],[-99.3524138,19.2939941],[-99.3529984,19.2936493],[-99.3532767,19.2934768],[-99.3534716,19.2933839],[-99.3537158,19.2933619],[-99.354536,19.293288],[-99.3535813,19.2919343],[-99.3649242,19.2777693],[-99.3619219,19.2757419],[-99.3561284,19.2749893],[-99.3482137,19.273961],[-99.3475125,19.2730267],[-99.346479,19.2722294],[-99.3462968,19.2720221],[-99.3461511,19.2713079],[-99.3458457,19.2708068],[-99.3455245,19.2704374],[-99.3451284,19.2699922],[-99.3446866,19.2694752],[-99.3440752,19.2691158],[-99.3437085,19.268962],[-99.3434912,19.2688723],[-99.3430597,19.2685477],[-99.3427776,19.2684747],[-99.3422544,19.2682914],[-99.3419106,19.2681787],[-99.341552,19.2680943],[-99.340939,19.2677978],[-99.3391599,19.2676971],[-99.3376298,19.26404],[-99.3398572,19.2596529],[-99.3413169,19.2521495],[-99.3420687,19.2475392],[-99.342341,19.2411224],[-99.335772,19.2393271],[-99.3308215,19.2379353],[-99.330474,19.2374805],[-99.3267196,19.2325656],[-99.3243203,19.2326098],[-99.3222548,19.2326478],[-99.3212965,19.2326655],[-99.3153433,19.2291965],[-99.3155555,19.2273954],[-99.3161217,19.2225888],[-99.3162497,19.2215017],[-99.3133657,19.2189674],[-99.3123003,19.2180311],[-99.3082997,19.2145124],[-99.3081331,19.2143689],[-99.3071355,19.2137285],[-99.3067847,19.2110808],[-99.3061306,19.2061437],[-99.3046865,19.2026454],[-99.3044448,19.200522],[-99.3039651,19.1982636],[-99.3039156,19.1971792],[-99.3032433,19.1936558],[-99.3027627,19.1908551],[-99.3013314,19.1884174],[-99.3001831,19.1845785],[-99.2955968,19.1728828],[-99.2931151,19.1652991],[-99.2876053,19.1466006],[-99.2853339,19.1428029],[-99.2825888,19.1382128],[-99.2801484,19.1341319],[-99.2786952,19.1317017],[-99.2566297,19.1165578],[-99.2267778,19.09606],[-99.2210843,19.0956403],[-99.1782307,19.0924743],[-99.1364815,19.089378]]],[[[-99.129539,19.2010721],[-99.1295403,19.2006821],[-99.1295401,19.2007473],[-99.129539,19.2010721]]],[[[-99.1903209,19.3386735],[-99.1902488,19.3379797],[-99.19024880966587,19.337979693025588],[-99.1903209,19.3386735]]],[[[-99.1999047,19.3332297],[-99.1987135,19.3334246],[-99.1982179,19.3335073],[-99.1987135,19.3334245],[-99.1999047,19.3332297]]],[[[-99.1962655,19.3326844],[-99.1960913,19.3324011],[-99.1957578,19.3319477],[-99.1960914,19.3324011],[-99.1962655,19.3326844]]],[[[-99.1948863,19.3234643],[-99.1948813,19.3231406],[-99.19488130116287,19.323140575306542],[-99.1948863,19.3234643]]],[[[-99.255243,19.4013256],[-99.2552279,19.401513],[-99.255243,19.4013255],[-99.25524412017796,19.401311620178948],[-99.255243,19.4013256]]],[[[-99.2553562,19.4006826],[-99.2552972,19.4009564],[-99.2553562,19.4006825],[-99.255405,19.4003631],[-99.2553562,19.4006826]]],[[[-99.2528847,19.3935722],[-99.2529608,19.3936329],[-99.2529546,19.393628],[-99.2528847,19.3935722]]],[[[-99.2468058,19.3938507],[-99.2468583,19.3939769],[-99.2468558,19.393971],[-99.2468058,19.3938507]]],[[[-99.2476879,19.3863191],[-99.2477835,19.3865128],[-99.2477792,19.3865042],[-99.2476879,19.3863191]]],[[[-99.2465698,19.3868288],[-99.2476526,19.385957],[-99.2476315,19.385974],[-99.2465698,19.3868288]]],[[[-99.190614,19.3993222],[-99.1908258,19.3996502],[-99.1908194,19.3996403],[-99.190614,19.3993222]]],[[[-99.271413,19.3030814],[-99.2715001,19.3030126],[-99.2720621,19.3025688],[-99.2715001,19.3030127],[-99.271413,19.3030814]]],[[[-99.2693336,19.3055665],[-99.2693075,19.3055561],[-99.2691737,19.3055024],[-99.2693336,19.3055665]]],[[[-99.271208,19.3072515],[-99.2713417,19.3082569],[-99.2712036,19.3072189],[-99.271208,19.3072515]]],[[[-99.2708391,19.3088629],[-99.2710577,19.3086057],[-99.2713356,19.3082789],[-99.2710577,19.3086058],[-99.2708391,19.3088629]]],[[[-99.2710536,19.3092947],[-99.2711417,19.3090596],[-99.2711455,19.3090495],[-99.2710536,19.3092947]]],[[[-99.2560792,19.3254839],[-99.2559152,19.3257255],[-99.256113,19.3254341],[-99.2560792,19.3254839]]],[[[-99.2088406,19.3376366],[-99.2083878,19.3378513],[-99.2088505,19.3376319],[-99.2088406,19.3376366]]],[[[-99.2205211,19.3210354],[-99.2205192,19.3210371],[-99.22047,19.3210811],[-99.2205714,19.3209904],[-99.2205211,19.3210354]]],[[[-99.2322483,19.3037888],[-99.2320423,19.303881],[-99.2320422,19.303881],[-99.2322483,19.3037888]]],[[[-99.2426563,19.2843393],[-99.2423173,19.2848686],[-99.2423683,19.2847889],[-99.2426563,19.2843393]]],[[[-99.243533,19.2700724],[-99.2435993,19.2702593],[-99.2436023,19.2702678],[-99.2434978,19.2699735],[-99.243533,19.2700724]]],[[[-99.2434678,19.2697899],[-99.2434791,19.2698587],[-99.2434978,19.2699735],[-99.2434678,19.2697899]]],[[[-99.2451531,19.2683172],[-99.24509125386257,19.268385911520216],[-99.2452713,19.2681858],[-99.2451531,19.2683172]]],[[[-99.2453261,19.2681353],[-99.245324,19.2681373],[-99.2452713,19.2681858],[-99.2453261,19.2681353]]],[[[-99.2457821,19.2677748],[-99.2453948,19.2680806],[-99.24539372526566,19.268081416798104],[-99.2457821,19.2677748]]],[[[-99.2911633,19.3225247],[-99.2913022,19.3226164],[-99.2912206,19.3225626],[-99.2911633,19.3225247]]],[[[-99.2988489,19.3206774],[-99.298812,19.3204716],[-99.2988489,19.3206773],[-99.2989954,19.3210604],[-99.2988489,19.3206774]]],[[[-99.30051254122138,19.322267458778626],[-99.3005125,19.3222675],[-99.3004663,19.3223041],[-99.30051254122138,19.322267458778626]]],[[[-99.1890487,19.395591],[-99.1886167,19.3956334],[-99.1890552,19.3955903],[-99.1890487,19.395591]]],[[[-99.1905794,19.4679363],[-99.1904453,19.4704399],[-99.1904442,19.470459],[-99.1905794,19.4679363]]],[[[-99.1900141,19.4644302],[-99.1907127,19.4646653],[-99.1907311,19.4646715],[-99.1900141,19.4644302]]],[[[-99.1882342,19.4624073],[-99.1882443,19.4623465],[-99.1880263,19.4636594],[-99.1882342,19.4624073]]],[[[-99.1872836,19.4604779],[-99.1884629,19.4607722],[-99.1884833,19.4607773],[-99.1872836,19.4604779]]],[[[-99.1789073,19.4589503],[-99.1787833,19.4589287],[-99.1799155,19.4591259],[-99.1789073,19.4589503]]],[[[-99.175055,19.4230428],[-99.1750888,19.4231386],[-99.1750961,19.4231593],[-99.175055,19.4230428]]],[[[-99.1838134,19.4076639],[-99.1842782,19.4078184],[-99.1843039,19.407827],[-99.1838134,19.4076639]]],[[[-99.1709916,19.4028834],[-99.1710754,19.4034753],[-99.1710785,19.4034972],[-99.1709916,19.4028834]]],[[[-99.1027815,19.3240551],[-99.1034582,19.3244162],[-99.1033453,19.324356],[-99.1027815,19.3240551]]],[[[-99.1017021,19.3234244],[-99.1020665,19.3236409],[-99.1019671,19.3235819],[-99.1017021,19.3234244]]],[[[-99.0995361,19.3213997],[-99.0999539,19.3219196],[-99.0995953,19.3214734],[-99.0995361,19.3213997]]],[[[-98.9613066,19.3254159],[-98.9613081,19.325416],[-98.9612849,19.3254148],[-98.9613066,19.3254159]]],[[[-98.9936191,19.2271188],[-98.9936223,19.2271293],[-98.9936757,19.2273061],[-98.9936191,19.2271188]]],[[[-98.9935434,19.2268059],[-98.9935527,19.2268681],[-98.9935026,19.2265354],[-98.9935434,19.2268059]]],[[[-98.9934803,19.2263879],[-98.9935026,19.2265353],[-98.9935026,19.2265354],[-98.9934803,19.2263879]]],[[[-98.9933385,19.2254471],[-98.9933451,19.2254908],[-98.9934076,19.2259056],[-98.9933385,19.2254471]]],[[[-98.9840509,19.2200317],[-98.9842546,19.220203],[-98.984259,19.2202067],[-98.98404155879352,19.220023861976177],[-98.9840509,19.2200317]]],[[[-98.984005,19.2199931],[-98.9840219538456,19.22000737692261],[-98.9838738,19.2198828],[-98.984005,19.2199931]]],[[[-98.9838416,19.2198557],[-98.9838718,19.2198811],[-98.9838738,19.2198828],[-98.9838416,19.2198557]]],[[[-99.0346439,19.2687452],[-99.0346541,19.2687601],[-99.0353538,19.269794],[-99.0346439,19.2687452]]],[[[-99.0268595,19.2617608],[-99.0271193,19.2619384],[-99.0272005,19.261837],[-99.0271193,19.2619385],[-99.0268595,19.2617608]]],[[[-99.0258422,19.2622052],[-99.0260398,19.2619436],[-99.0264725,19.2617688],[-99.0260398,19.2619437],[-99.0258422,19.2622052]]],[[[-99.0186741,19.2607437],[-99.0188323,19.2608038],[-99.0189078,19.2608326],[-99.0186741,19.2607437]]],[[[-99.0152063,19.259164],[-99.0153554,19.2592375],[-99.0155603,19.2593385],[-99.0148611,19.2589939],[-99.0152063,19.259164]]],[[[-99.0127094,19.2451425],[-99.0124681,19.2459317],[-99.0123969,19.2461229],[-99.012468,19.2459317],[-99.0127094,19.2451425]]],[[[-99.058976,19.394537],[-99.0589708,19.3945964],[-99.0589269,19.3950924],[-99.058976,19.394537]]],[[[-99.0597131,19.3900081],[-99.0596684,19.3902757],[-99.05966831859384,19.3902757],[-99.0597131,19.3900081]]],[[[-99.08087671284775,19.450157293197428],[-99.0808767,19.4501573],[-99.0805911,19.450135],[-99.08087671284775,19.450157293197428]]],[[[-99.0896888,19.4485001],[-99.0894048,19.4482363],[-99.0896889,19.4485001],[-99.0897533,19.4485599],[-99.0896888,19.4485001]]],[[[-99.0908013,19.449533],[-99.0906303,19.4493742],[-99.0908014,19.449533],[-99.0911542,19.4498606],[-99.0908013,19.449533]]]]}}]}
