{"type":"FeatureCollection","name":"proximamente-cdmx","features":[{"type":"Feature","properties":{"label":"Próximamente"},"geometry":{"type":"Point","coordinates":[-99.5,19.32]}},{"type":"Feature","properties":{"label":"Próximamente"},"geometry":{"type":"Point","coordinates":[-98.8,19.32]}},{"type":"Feature","properties":{"label":"Próximamente"},"geometry":{"type":"Point","coordinates":[-99.13,19.7]}},{"type":"Feature","properties":{"label":"Próximamente"},"geometry":{"type":"Point","coordinates":[-99.13,18.98]}}]}
